{"type":"FeatureCollection","features":[{"type":"Feature","properties":{},"bbox":[14.258887,12.876758,14.742773,13.238721],"geometry":{"type":"Polygon","coordinates":[[[14.742285,13.078027],[14.742773,13.062354],[14.716016,13.046631],[14.694336,13.023633],[14.685547,12.993066],[14.660645,12.982373],[14.619629,12.991553],[14.592188,12.989941],[14.516211,12.979736],[14.474805,12.951758],[14.406641,12.89917],[14.346582,12.876758],[14.294727,12.884473],[14.275,12.90293],[14.258887,12.986084],[14.258984,13.004297],[14.282227,13.014453],[14.288867,13.029248],[14.307129,13.06543],[14.310742,13.082031],[14.311816,13.087061],[14.330371,13.116406],[14.330371,13.134961],[14.342383,13.162109],[14.369629,13.185059],[14.414648,13.208838],[14.495996,13.238721],[14.554395,13.238477],[14.591406,13.213721],[14.653125,13.208447],[14.668262,13.195264],[14.706641,13.136963],[14.742285,13.078027],[14.742285,13.078027],[14.742285,13.078027]]]}},{"type":"Feature","properties":{},"bbox":[12.313281,58.372119,14.09082,59.389941],"geometry":{"type":"Polygon","coordinates":[[[14.038379,59.082666],[14.038379,59.082666],[14.038379,59.082666],[14.038379,59.082666],[14.038379,59.082666],[14.06582,59.097217],[14.083008,59.099902],[14.089453,59.091553],[14.09082,59.079395],[14.083008,59.064258],[14.07168,59.028271],[14.05625,59.016895],[14.049902,59.012207],[14.038672,59.004395],[14.012109,59.003662],[13.992578,58.986426],[13.995215,58.944824],[13.987207,58.898145],[13.975195,58.86543],[13.954102,58.843652],[13.924121,58.823389],[13.890137,58.800488],[13.859277,58.772168],[13.829883,58.744336],[13.799512,58.722412],[13.737305,58.703857],[13.631055,58.684131],[13.517285,58.663281],[13.436621,58.641992],[13.358105,58.61709],[13.300293,58.561426],[13.240234,58.514844],[13.194629,58.510986],[13.172168,58.511865],[13.147559,58.521436],[13.136523,58.541309],[13.149414,58.558545],[13.148926,58.573389],[13.148242,58.597168],[13.115137,58.608252],[13.040625,58.604297],[12.952148,58.571631],[12.912793,58.545752],[12.868652,58.503809],[12.79834,58.485693],[12.727539,58.4521],[12.679199,58.420508],[12.649707,58.396875],[12.624316,58.382324],[12.601953,58.375977],[12.57959,58.372119],[12.561914,58.373193],[12.550586,58.378857],[12.554297,58.394385],[12.572656,58.419189],[12.571094,58.432178],[12.554297,58.429834],[12.507031,58.396924],[12.375,58.382861],[12.334668,58.373779],[12.313281,58.395313],[12.329297,58.433936],[12.487695,58.513232],[12.606934,58.61709],[12.611328,58.641309],[12.562793,58.650195],[12.525195,58.66123],[12.503711,58.69458],[12.500879,58.727539],[12.499707,58.764453],[12.471289,58.782764],[12.447559,58.782764],[12.425488,58.801465],[12.432129,58.8125],[12.458984,58.817432],[12.473828,58.839697],[12.471777,58.876904],[12.463965,58.920703],[12.468555,58.934863],[12.481934,58.930615],[12.497266,58.92002],[12.510254,58.901221],[12.519922,58.867383],[12.526367,58.845605],[12.535254,58.83208],[12.557129,58.818945],[12.575781,58.825732],[12.599707,58.845605],[12.618359,58.886914],[12.646875,58.931494],[12.675781,58.98667],[12.708398,59.035547],[12.745898,59.064844],[12.784082,59.076221],[12.818359,59.081982],[12.868555,59.072656],[12.945312,59.047656],[13.040625,59.014258],[13.061719,58.977344],[13.088086,58.946631],[13.12207,58.92085],[13.159766,58.905078],[13.195117,58.898584],[13.235742,58.905078],[13.243555,58.930469],[13.221094,58.992676],[13.177344,59.096924],[13.123145,59.19751],[13.10332,59.25459],[13.103027,59.273975],[13.108105,59.283838],[13.118164,59.295508],[13.130078,59.319043],[13.142676,59.342285],[13.154883,59.35293],[13.173145,59.34751],[13.191406,59.324609],[13.217871,59.310547],[13.245703,59.310303],[13.25166,59.315039],[13.250977,59.324512],[13.248926,59.335742],[13.251172,59.344971],[13.261133,59.351758],[13.277539,59.357324],[13.315723,59.36123],[13.378223,59.364063],[13.461133,59.369971],[13.54834,59.381299],[13.62832,59.389941],[13.679688,59.389746],[13.719727,59.378027],[13.738477,59.359473],[13.743945,59.341455],[13.751953,59.331152],[13.766016,59.330908],[13.800293,59.337061],[13.830078,59.340918],[13.867383,59.33457],[13.904297,59.327734],[13.933301,59.330469],[13.961719,59.333984],[13.99707,59.329053],[14.028027,59.320068],[14.045508,59.313623],[14.051758,59.304834],[14.055664,59.28999],[14.054297,59.267773],[14.047461,59.241211],[14.027344,59.204297],[13.99375,59.157227],[13.946289,59.112939],[13.930566,59.089795],[13.94541,59.067432],[13.973438,59.065771],[14.00498,59.068164],[14.038379,59.082666]]]}},{"type":"Feature","properties":{},"bbox":[37.001953,11.631934,37.591797,12.303271],"geometry":{"type":"Polygon","coordinates":[[[37.285547,11.794482],[37.252734,11.819678],[37.211133,11.822217],[37.169238,11.816602],[37.145508,11.833496],[37.112988,11.855078],[37.095898,11.840283],[37.078125,11.829492],[37.058203,11.834082],[37.040234,11.851855],[37.023926,11.879883],[37.001953,11.906641],[37.006055,11.971729],[37.008008,12.02876],[37.016504,12.086719],[37.027832,12.164502],[37.048145,12.210254],[37.071777,12.243213],[37.095898,12.265674],[37.126074,12.270117],[37.164453,12.259521],[37.194727,12.230566],[37.219141,12.22959],[37.269141,12.224219],[37.332715,12.272363],[37.376758,12.288037],[37.413281,12.290723],[37.460254,12.303271],[37.496094,12.285547],[37.528906,12.258984],[37.555176,12.222998],[37.565918,12.164453],[37.591797,12.11709],[37.584766,12.08374],[37.583496,12.049072],[37.576563,12.017871],[37.559961,11.985596],[37.550195,11.941943],[37.512891,11.909912],[37.500977,11.875635],[37.495898,11.834814],[37.439941,11.753418],[37.387207,11.632275],[37.36123,11.63457],[37.342188,11.631934],[37.326855,11.635889],[37.320117,11.647656],[37.300586,11.668457],[37.321777,11.709082],[37.308789,11.741162],[37.289258,11.771338],[37.285547,11.794482],[37.285547,11.794482],[37.285547,11.794482]]]}},{"type":"Feature","properties":{},"bbox":[5.014063,52.251904,5.87002,53.064697],"geometry":{"type":"Polygon","coordinates":[[[5.867188,52.563184],[5.867188,52.563184],[5.867188,52.563184],[5.867188,52.563184],[5.87002,52.485352],[5.795117,52.427686],[5.495313,52.251904],[5.316016,52.291504],[5.039941,52.344141],[5.014063,52.364307],[5.03623,52.40459],[5.062305,52.430713],[5.069043,52.451367],[5.069824,52.52041],[5.059961,52.565576],[5.065918,52.62373],[5.137988,52.626611],[5.241699,52.669824],[5.247461,52.730371],[5.164844,52.785742],[5.117578,52.835986],[5.094043,52.886182],[5.068066,52.923437],[5.152344,52.966699],[5.268945,53.027246],[5.377246,53.064697],[5.398242,53.041943],[5.413086,52.902637],[5.42041,52.874463],[5.45498,52.857178],[5.547266,52.845654],[5.656836,52.851416],[5.666992,52.817334],[5.625293,52.781836],[5.617969,52.757666],[5.613086,52.684375],[5.619141,52.658496],[5.653418,52.629639],[5.835449,52.609277],[5.867188,52.563184]],[[5.800879,52.465771],[5.800879,52.465771],[5.800879,52.465771],[5.800879,52.465771],[5.83418,52.502246],[5.829492,52.535449],[5.797461,52.5646],[5.735547,52.582227],[5.658105,52.587598],[5.539258,52.557715],[5.376953,52.490332],[5.168555,52.37876],[5.183887,52.35835],[5.242383,52.33374],[5.424414,52.297656],[5.499121,52.301855],[5.548047,52.324414],[5.620605,52.375928],[5.741016,52.429004],[5.800879,52.465771]]]}},{"type":"Feature","properties":{},"bbox":[37.150781,58.015576,39.005273,59.209766],"geometry":{"type":"Polygon","coordinates":[[[38.680957,58.108203],[38.611719,58.113135],[38.383105,58.121875],[38.357031,58.100098],[38.436914,58.035645],[38.437109,58.017529],[38.415332,58.015576],[38.369238,58.031592],[38.310156,58.040576],[38.281055,58.053857],[38.25918,58.070898],[38.249609,58.102686],[38.250977,58.19873],[38.220508,58.237305],[38.14873,58.248633],[37.944043,58.300879],[37.897168,58.291797],[37.507129,58.535352],[37.416895,58.613086],[37.316797,58.657422],[37.155273,58.694971],[37.15459,58.706543],[37.169238,58.725635],[37.150781,58.84873],[37.30791,58.76001],[37.372266,58.731445],[37.422852,58.726562],[37.410352,58.689062],[37.410352,58.669971],[37.45918,58.633936],[37.537695,58.612695],[37.564648,58.552832],[37.608691,58.545312],[37.661133,58.557471],[37.666602,58.572461],[37.620898,58.626221],[37.632324,58.63623],[37.714844,58.617529],[37.767773,58.617627],[37.994922,58.550439],[38.073926,58.541943],[38.073828,58.591553],[38.103125,58.619482],[38.095508,58.634473],[37.987695,58.672217],[37.98418,58.692383],[37.945312,58.720312],[37.941699,58.735498],[37.961328,58.743604],[38.023926,58.745898],[37.995898,58.86167],[37.917578,58.858252],[37.869434,58.89707],[37.82832,58.914062],[37.777246,58.926221],[37.713672,58.927734],[37.642383,58.918896],[37.58125,58.898828],[37.501367,58.844775],[37.471289,58.85708],[37.46582,58.874561],[37.484375,58.927197],[37.499121,58.944189],[37.608887,58.988965],[37.673242,59.025195],[37.695605,59.063965],[37.67627,59.102344],[37.640039,59.137695],[37.644922,59.156787],[37.842871,59.155273],[37.940039,59.174072],[37.987305,59.176758],[38.001563,59.159766],[38.007422,59.14375],[38.027246,59.128076],[38.116211,59.102588],[38.159375,59.101562],[38.179688,59.11333],[38.180469,59.132129],[38.176367,59.148242],[38.124023,59.202881],[38.143262,59.209766],[38.18291,59.203076],[38.294043,59.161328],[38.414648,59.173437],[38.407324,59.152295],[38.331543,59.092578],[38.239453,59.062695],[38.170508,59.065039],[37.910156,59.102734],[37.866406,59.094092],[37.857715,59.075146],[37.919922,59.04209],[38.046973,58.994189],[38.119434,58.95459],[38.427344,58.747021],[38.609961,58.636572],[38.752832,58.546924],[38.989258,58.495605],[39.003711,58.475635],[38.970313,58.44082],[39.000391,58.386768],[39.005273,58.358057],[38.870898,58.331055],[38.830469,58.295557],[38.812109,58.250732],[38.81875,58.134814],[38.805176,58.121973],[38.779492,58.134766],[38.691699,58.207031],[38.638281,58.220312],[38.619238,58.20127],[38.697949,58.132959],[38.704004,58.113135],[38.680957,58.108203],[38.680957,58.108203],[38.680957,58.108203]]]}},{"type":"Feature","properties":{},"bbox":[76.21543,42.168164,78.302637,42.73374],"geometry":{"type":"Polygon","coordinates":[[[78.302637,42.588379],[78.292383,42.564062],[78.158008,42.550098],[78.01416,42.487451],[77.870703,42.428271],[77.851758,42.402197],[77.853906,42.36665],[77.716211,42.240381],[77.59502,42.200391],[77.514551,42.181836],[77.136523,42.168164],[77.022949,42.173047],[76.921484,42.19043],[76.577734,42.291357],[76.432129,42.319531],[76.328711,42.32998],[76.263086,42.327588],[76.227246,42.388916],[76.21543,42.435205],[76.226465,42.460596],[76.452832,42.488574],[76.74707,42.565332],[76.965039,42.612256],[77.190234,42.646875],[77.337402,42.669678],[77.534863,42.651318],[77.684082,42.701807],[78.06377,42.72666],[78.248828,42.73374],[78.151367,42.671777],[78.118945,42.641504],[78.136328,42.607666],[78.302637,42.588379],[78.302637,42.588379],[78.302637,42.588379]]]}},{"type":"Feature","properties":{},"bbox":[83.026758,47.699121,84.515625,49.726367],"geometry":{"type":"Polygon","coordinates":[[[84.515625,47.929883],[84.42666,47.856885],[84.394336,47.816162],[84.356836,47.732129],[84.295996,47.699121],[84.241797,47.706445],[83.994336,47.843262],[83.765625,47.951172],[83.624609,48.012793],[83.444531,48.048828],[83.258984,48.094629],[83.082617,48.178223],[83.026758,48.211865],[83.038574,48.249609],[83.182129,48.249365],[83.275098,48.261328],[83.435254,48.269971],[83.497559,48.304541],[83.532617,48.375146],[83.460742,48.432275],[83.392188,48.499854],[83.387012,48.554004],[83.417383,48.597461],[83.422656,48.743213],[83.471191,48.858203],[83.589453,48.962402],[83.747266,49.039258],[83.87168,49.062695],[84.036133,49.110596],[84.120605,49.159082],[84.099805,49.238037],[83.972461,49.328809],[83.848535,49.41709],[83.724414,49.439551],[83.660352,49.44292],[83.608008,49.48623],[83.538965,49.531885],[83.478906,49.538232],[83.426465,49.573389],[83.364844,49.626074],[83.363672,49.643848],[83.391211,49.652393],[83.608203,49.60625],[83.739844,49.630957],[83.889844,49.72041],[83.963574,49.726367],[83.96123,49.702637],[83.818262,49.633643],[83.79668,49.597119],[83.756543,49.564355],[83.729492,49.535205],[83.823145,49.483936],[84.287793,49.237695],[84.360645,49.160547],[84.328613,49.124854],[84.149023,49.086035],[83.864062,48.994385],[83.776758,48.975391],[83.60918,48.9104],[83.514063,48.81333],[83.486914,48.718262],[83.516797,48.616846],[83.613379,48.437256],[83.773926,48.410449],[83.919434,48.397217],[83.907129,48.373535],[83.681934,48.353418],[83.596191,48.303027],[83.58125,48.26748],[83.633594,48.241504],[83.740039,48.197656],[83.880664,48.151904],[84.051465,48.083496],[84.16709,48.055957],[84.333887,48.023096],[84.468359,47.969385],[84.515625,47.929883],[84.515625,47.929883],[84.515625,47.929883],[84.515625,47.929883]]]}},{"type":"Feature","properties":{},"bbox":[35.847266,2.405176,36.69668,4.653906],"geometry":{"type":"Polygon","coordinates":[[[36.68457,2.537793],[36.633008,2.424707],[36.570996,2.405176],[36.534961,2.447852],[36.424023,2.734424],[36.331348,2.873926],[36.242285,2.965625],[36.200098,2.973584],[36.153613,3.037891],[36.112793,3.166602],[36.038086,3.264404],[35.965918,3.368018],[35.937207,3.482324],[35.914551,3.518945],[35.872266,3.598145],[35.847266,3.775293],[35.857227,3.875635],[35.888281,4.038428],[35.918945,4.27041],[35.925586,4.385156],[35.950488,4.55293],[35.994727,4.565625],[36.044922,4.539014],[36.07373,4.555029],[36.097949,4.623291],[36.132422,4.652979],[36.155078,4.653906],[36.174121,4.631934],[36.196973,4.430908],[36.214746,4.147852],[36.213086,4.053516],[36.225879,3.879834],[36.221191,3.472949],[36.310742,3.206641],[36.427246,3.011426],[36.538477,2.92373],[36.652051,2.858398],[36.69668,2.726611],[36.68457,2.537793],[36.68457,2.537793],[36.68457,2.537793],[36.68457,2.537793]]]}},{"type":"Feature","properties":{},"bbox":[19.71709,54.433838,20.404883,54.709961],"geometry":{"type":"Polygon","coordinates":[[[19.764063,54.433838],[19.71709,54.482275],[19.878711,54.589111],[19.941504,54.64668],[19.958398,54.682031],[19.987988,54.709961],[20.033496,54.702051],[20.084277,54.673145],[20.208301,54.683984],[20.208301,54.683984],[20.208301,54.683984],[20.208301,54.683984],[20.208301,54.683984],[20.208301,54.683984],[20.404883,54.681641],[20.102246,54.58252],[19.929199,54.517139],[19.768945,54.437988],[19.764063,54.433838]]]}},{"type":"Feature","properties":{},"bbox":[19.250977,54.267969,19.764063,54.482275],"geometry":{"type":"Polygon","coordinates":[[[19.71709,54.482275],[19.764063,54.433838],[19.738477,54.411816],[19.658301,54.37417],[19.585938,54.348486],[19.480859,54.300439],[19.346777,54.267969],[19.250977,54.310645],[19.278613,54.338379],[19.502734,54.380957],[19.616406,54.426416],[19.71709,54.482275]]]}},{"type":"Feature","properties":{},"bbox":[43.066016,33.70625,43.492773,34.32915],"geometry":{"type":"Polygon","coordinates":[[[43.26123,33.727734],[43.196289,33.79209],[43.106152,33.915186],[43.073633,34.112988],[43.066016,34.258057],[43.083594,34.314746],[43.11582,34.32915],[43.23877,34.141406],[43.362305,34.042676],[43.46748,33.950439],[43.492773,33.888037],[43.476465,33.806934],[43.47832,33.729102],[43.419629,33.70625],[43.331836,33.71709],[43.26123,33.727734],[43.26123,33.727734],[43.26123,33.727734],[43.26123,33.727734]]]}},{"type":"Feature","properties":{},"bbox":[43.423047,32.531006,43.878418,33.079443],"geometry":{"type":"Polygon","coordinates":[[[43.878418,32.687695],[43.862598,32.611523],[43.792578,32.535156],[43.739453,32.531006],[43.668066,32.553467],[43.628613,32.579932],[43.577246,32.595508],[43.482129,32.642383],[43.437598,32.714941],[43.423047,32.810352],[43.432422,32.868945],[43.451465,32.879248],[43.475098,32.919482],[43.468555,33.010889],[43.507812,33.059863],[43.550195,33.079443],[43.582715,33.039355],[43.719922,32.808447],[43.820605,32.732129],[43.878418,32.687695],[43.878418,32.687695],[43.878418,32.687695],[43.878418,32.687695]]]}},{"type":"Feature","properties":{},"bbox":[35.402148,31.325391,35.585352,31.765527],"geometry":{"type":"Polygon","coordinates":[[[35.585352,31.72417],[35.566797,31.573975],[35.545117,31.359131],[35.520996,31.327246],[35.422852,31.325391],[35.403125,31.348242],[35.402148,31.492432],[35.421387,31.618555],[35.462598,31.710352],[35.521973,31.755859],[35.558984,31.765527],[35.585352,31.72417],[35.585352,31.72417],[35.585352,31.72417],[35.585352,31.72417]]]}},{"type":"Feature","properties":{},"bbox":[27.49707,57.859961,28.169238,58.214795],"geometry":{"type":"Polygon","coordinates":[[[27.49707,58.184131],[27.568555,58.214795],[27.591797,58.174609],[27.714355,58.164258],[27.865137,58.173486],[27.865137,58.173486],[27.865137,58.173486],[27.865137,58.173486],[27.865137,58.173486],[27.973047,58.132617],[28.096973,58.044434],[28.149219,57.974658],[28.169238,57.914502],[28.101758,57.859961],[27.99209,57.868115],[27.910938,57.895752],[27.875391,57.92041],[27.881641,57.937012],[27.802734,57.990234],[27.67832,58.018506],[27.623828,58.014258],[27.49707,58.184131]]]}},{"type":"Feature","properties":{},"bbox":[4.399512,9.864502,4.685254,10.644043],"geometry":{"type":"Polygon","coordinates":[[[4.685254,10.365479],[4.678516,10.344336],[4.598242,10.196094],[4.599805,10.112939],[4.61709,10.002783],[4.658594,9.884717],[4.625684,9.864502],[4.594043,9.866797],[4.565723,9.903223],[4.536816,10.028271],[4.495508,10.06626],[4.47373,10.07002],[4.467871,10.098486],[4.495215,10.126123],[4.510059,10.147559],[4.505762,10.173682],[4.470215,10.186035],[4.463867,10.195898],[4.484863,10.228809],[4.46543,10.305518],[4.399609,10.375293],[4.399512,10.403369],[4.437891,10.418066],[4.450977,10.437891],[4.459473,10.460059],[4.470313,10.626709],[4.491504,10.644043],[4.566895,10.602783],[4.606152,10.616553],[4.656152,10.607227],[4.680371,10.584766],[4.649609,10.516895],[4.667188,10.410059],[4.685254,10.365479],[4.685254,10.365479],[4.685254,10.365479]]]}},{"type":"Feature","properties":{},"bbox":[45.01543,37.134863,45.857715,38.264258],"geometry":{"type":"Polygon","coordinates":[[[45.666309,37.741895],[45.666309,37.741895],[45.666309,37.741895],[45.666309,37.741895],[45.74668,37.701172],[45.74873,37.662549],[45.75498,37.577734],[45.857715,37.426465],[45.831152,37.340527],[45.702637,37.302979],[45.662793,37.288135],[45.6125,37.211719],[45.535547,37.134863],[45.448535,37.149463],[45.364551,37.226611],[45.29248,37.438037],[45.257129,37.61543],[45.253223,37.684961],[45.23418,37.763672],[45.087012,37.8854],[45.080273,37.987598],[45.155469,38.044531],[45.188184,38.107861],[45.171191,38.143848],[45.091797,38.140039],[45.01543,38.144385],[45.025977,38.192725],[45.105566,38.264258],[45.356934,38.264258],[45.458398,38.173437],[45.487305,38.072949],[45.447461,37.932422],[45.435938,37.806201],[45.483203,37.753564],[45.546094,37.754346],[45.666309,37.741895]]]}},{"type":"Feature","properties":{},"bbox":[57.053418,41.573242,57.865039,42.334912],"geometry":{"type":"Polygon","coordinates":[[[57.865039,41.773145],[57.817773,41.699854],[57.684863,41.636182],[57.526758,41.594482],[57.42959,41.578564],[57.345605,41.573242],[57.247168,41.652539],[57.174414,41.73457],[57.115918,41.731348],[57.061816,41.724854],[57.053418,41.773389],[57.09375,41.968408],[57.182715,42.185352],[57.272656,42.30332],[57.392285,42.334912],[57.549805,42.260693],[57.627246,42.149609],[57.613086,42.105029],[57.631738,42.065527],[57.682422,42.0104],[57.700293,41.912646],[57.844824,41.837842],[57.865039,41.773145],[57.865039,41.773145],[57.865039,41.773145]]]}},{"type":"Feature","properties":{},"bbox":[76.73418,54.613818,78.049121,55.056787],"geometry":{"type":"Polygon","coordinates":[[[76.746973,54.832275],[76.869043,54.882568],[77.067285,54.919141],[77.134375,54.923242],[77.164453,54.886768],[77.245313,54.855957],[77.294043,54.890088],[77.307324,54.925146],[77.326563,54.968311],[77.430371,55.02041],[77.570312,55.053271],[77.635742,55.056787],[77.666895,55.054199],[77.696289,55.047217],[77.723535,55.024902],[77.87793,55.008643],[78.033008,54.975488],[78.049121,54.927441],[77.937891,54.891016],[77.807227,54.863037],[77.777148,54.859082],[77.694434,54.831982],[77.643457,54.802734],[77.635938,54.769141],[77.692969,54.741406],[77.729883,54.69209],[77.740625,54.661328],[77.694141,54.63374],[77.599902,54.613818],[77.564648,54.624219],[77.573535,54.646973],[77.52207,54.664746],[77.435156,54.683984],[77.354199,54.693555],[77.245117,54.723145],[77.052246,54.732031],[77.016504,54.730127],[76.943262,54.7146],[76.825977,54.701025],[76.73418,54.716504],[76.75332,54.787109],[76.746973,54.832275],[76.746973,54.832275],[76.746973,54.832275]]]}},{"type":"Feature","properties":{},"bbox":[81.399414,45.764014,82.132715,46.455713],"geometry":{"type":"Polygon","coordinates":[[[82.132715,45.764014],[81.748633,45.871875],[81.554688,45.964795],[81.42666,46.055371],[81.404102,46.151221],[81.409961,46.234863],[81.399414,46.304736],[81.443164,46.392139],[81.529688,46.451807],[81.65,46.455713],[81.761133,46.430859],[81.840625,46.395801],[81.912207,46.35083],[81.975781,46.278564],[82.025293,46.184766],[82.037695,46.079785],[82.063574,45.943848],[82.132715,45.764014],[82.132715,45.764014],[82.132715,45.764014]]]}},{"type":"Feature","properties":{},"bbox":[26.966406,58.184131,27.820508,59.006934],"geometry":{"type":"Polygon","coordinates":[[[27.568555,58.214795],[27.49707,58.184131],[27.472656,58.216748],[27.425488,58.303076],[27.323926,58.401904],[27.236621,58.452246],[27.156738,58.647949],[26.966406,58.805566],[26.974121,58.884277],[27.107324,58.954199],[27.298145,58.994922],[27.52373,59.006934],[27.683008,58.979639],[27.748438,58.912061],[27.813672,58.571338],[27.820508,58.484912],[27.798145,58.446826],[27.747852,58.429932],[27.582715,58.306396],[27.561328,58.257422],[27.568555,58.214795]]]}},{"type":"Feature","properties":{},"bbox":[31.887988,48.993604,33.194336,49.569678],"geometry":{"type":"Polygon","coordinates":[[[33.16709,49.019287],[33.1625,48.993604],[33.07627,49.004346],[33.066113,49.021387],[33.043457,49.063135],[32.980859,49.082568],[32.863379,49.087256],[32.769531,49.115918],[32.718066,49.140137],[32.620508,49.198633],[32.408203,49.301709],[32.293555,49.346191],[32.170117,49.404395],[31.900488,49.512793],[31.887988,49.554443],[31.955371,49.569678],[32.114453,49.541309],[32.183594,49.520947],[32.35,49.469092],[32.461426,49.426074],[32.631836,49.381836],[32.682422,49.400977],[32.659473,49.464404],[32.664648,49.537012],[32.712012,49.559375],[32.753906,49.484766],[32.860645,49.407812],[33.01543,49.280664],[33.104102,49.200146],[33.194336,49.11875],[33.193945,49.093896],[33.16709,49.019287],[33.16709,49.019287],[33.16709,49.019287]]]}},{"type":"Feature","properties":{},"bbox":[33.158105,38.522754,33.673535,39.126709],"geometry":{"type":"Polygon","coordinates":[[[33.45752,38.853613],[33.524512,38.811963],[33.597461,38.798926],[33.673535,38.712305],[33.61709,38.577783],[33.533105,38.522754],[33.422559,38.558643],[33.325586,38.610645],[33.235742,38.666699],[33.158105,38.772119],[33.21875,38.87627],[33.292773,38.967236],[33.309277,39.057373],[33.305371,39.126709],[33.350391,39.120361],[33.42373,39.055811],[33.454492,38.991895],[33.440137,38.938184],[33.45752,38.853613],[33.45752,38.853613],[33.45752,38.853613]]]}},{"type":"Feature","properties":{},"bbox":[86.728027,41.825488,87.375195,42.108105],"geometry":{"type":"Polygon","coordinates":[[[87.375195,41.851025],[87.25918,41.893652],[87.102148,41.900879],[86.893945,41.869873],[86.753418,41.825488],[86.728027,41.850342],[86.735059,41.902783],[86.794922,41.974756],[86.828613,42.07251],[86.888965,42.108105],[87.007715,42.084473],[87.315332,42.016748],[87.375195,41.907715],[87.375195,41.851025],[87.375195,41.851025],[87.375195,41.851025]]]}},{"type":"Feature","properties":{},"bbox":[30.857031,58.141992,31.688281,58.476562],"geometry":{"type":"Polygon","coordinates":[[[31.530957,58.230176],[31.446484,58.205908],[31.394043,58.141992],[31.15625,58.171338],[30.876172,58.214111],[30.857031,58.239111],[30.954883,58.284375],[31.019434,58.319727],[31.07998,58.331592],[31.170215,58.359473],[31.25166,58.425439],[31.29834,58.476562],[31.374316,58.429248],[31.430176,58.416553],[31.510742,58.388867],[31.518164,58.372559],[31.637109,58.387988],[31.653418,58.36875],[31.645703,58.351416],[31.646973,58.308398],[31.688281,58.202295],[31.630566,58.207275],[31.530957,58.230176],[31.530957,58.230176],[31.530957,58.230176]]]}},{"type":"Feature","properties":{},"bbox":[88.566309,31.595605,89.32334,31.918018],"geometry":{"type":"Polygon","coordinates":[[[89.317578,31.794189],[89.286523,31.787549],[89.253223,31.749121],[89.211328,31.678711],[89.138086,31.601562],[89.05752,31.595605],[88.989062,31.608691],[88.945508,31.624512],[88.937305,31.65752],[88.948242,31.700391],[88.926953,31.728027],[88.849805,31.725879],[88.763672,31.711621],[88.68457,31.729492],[88.608008,31.79624],[88.566309,31.843994],[88.607813,31.880078],[88.704004,31.86665],[88.759082,31.833838],[88.789258,31.828564],[88.813672,31.841064],[88.864258,31.887402],[88.968457,31.918018],[89.120215,31.912744],[89.266309,31.872314],[89.32334,31.823389],[89.317578,31.794189],[89.317578,31.794189],[89.317578,31.794189]]]}},{"type":"Feature","properties":{},"bbox":[6.133301,46.20459,6.873633,46.528809],"geometry":{"type":"Polygon","coordinates":[[[6.873633,46.432227],[6.866406,46.402588],[6.84502,46.384814],[6.665332,46.402441],[6.468848,46.388574],[6.336426,46.360937],[6.157031,46.205078],[6.133301,46.20459],[6.158398,46.302441],[6.343945,46.457617],[6.588184,46.528809],[6.818848,46.465625],[6.873633,46.432227],[6.873633,46.432227],[6.873633,46.432227]]]}},{"type":"Feature","properties":{},"bbox":[-6.584717,54.499414,-6.271875,54.722803],"geometry":{"type":"Polygon","coordinates":[[[-6.488379,54.722803],[-6.458594,54.715381],[-6.31792,54.708838],[-6.271875,54.66001],[-6.282324,54.60376],[-6.348828,54.524707],[-6.354297,54.502197],[-6.427393,54.499414],[-6.562402,54.514648],[-6.584717,54.56001],[-6.54126,54.623291],[-6.511426,54.698389],[-6.488379,54.722803],[-6.488379,54.722803],[-6.488379,54.722803]]]}},{"type":"Feature","properties":{},"bbox":[14.121094,57.796289,14.968066,58.854102],"geometry":{"type":"Polygon","coordinates":[[[14.933008,58.783887],[14.940918,58.756152],[14.929004,58.699902],[14.899707,58.634961],[14.891406,58.59165],[14.9625,58.539258],[14.946191,58.510889],[14.827344,58.461523],[14.686426,58.394678],[14.622461,58.298877],[14.582422,58.20166],[14.543457,58.138135],[14.499414,58.085498],[14.339258,57.933301],[14.24502,57.809473],[14.159277,57.796289],[14.121094,57.924512],[14.213184,58.150195],[14.390527,58.406299],[14.506641,58.560742],[14.631641,58.679834],[14.725684,58.731348],[14.816895,58.791113],[14.932129,58.854102],[14.968066,58.848828],[14.962109,58.835498],[14.933008,58.783887],[14.933008,58.783887],[14.933008,58.783887]]]}},{"type":"Feature","properties":{},"bbox":[42.353125,38.326074,43.610742,38.987842],"geometry":{"type":"Polygon","coordinates":[[[42.988672,38.345605],[42.922754,38.390039],[42.911621,38.426123],[42.882227,38.476807],[42.856445,38.48374],[42.780957,38.458594],[42.683301,38.456543],[42.586133,38.481592],[42.538477,38.489697],[42.353125,38.499805],[42.364551,38.548535],[42.433984,38.610498],[42.458398,38.642773],[42.458008,38.692187],[42.525977,38.745166],[42.722852,38.78208],[42.84502,38.793994],[42.934766,38.794189],[43.079395,38.809326],[43.162793,38.846191],[43.158789,38.868994],[43.126465,38.881836],[43.087598,38.881396],[43.075195,38.916113],[43.152148,38.947559],[43.284961,38.963574],[43.435938,38.987842],[43.560156,38.977637],[43.610742,38.947021],[43.531055,38.89751],[43.382812,38.836084],[43.291895,38.812793],[43.209961,38.715918],[43.186426,38.603125],[43.287109,38.547998],[43.318359,38.488721],[43.23457,38.407227],[43.147656,38.336621],[43.087695,38.326074],[42.988672,38.345605],[42.988672,38.345605],[42.988672,38.345605]]]}},{"type":"Feature","properties":{},"bbox":[89.082031,37.485352,89.645215,37.63252],"geometry":{"type":"Polygon","coordinates":[[[89.610938,37.495166],[89.513867,37.485352],[89.365137,37.504199],[89.228418,37.527539],[89.144727,37.538477],[89.097461,37.560352],[89.082031,37.586572],[89.14668,37.597852],[89.27666,37.614893],[89.396484,37.63252],[89.486914,37.627734],[89.565039,37.613037],[89.618457,37.594336],[89.644922,37.575342],[89.639063,37.552783],[89.640039,37.526855],[89.645215,37.509912],[89.610938,37.495166],[89.610938,37.495166],[89.610938,37.495166],[89.610938,37.495166]]]}},{"type":"Feature","properties":{},"bbox":[37.695508,6.013623,38.143457,6.589258],"geometry":{"type":"Polygon","coordinates":[[[38.055078,6.577686],[38.101953,6.575879],[38.137695,6.577246],[38.143457,6.559912],[38.129492,6.519092],[38.116406,6.473096],[38.106543,6.449023],[38.087402,6.422852],[38.058105,6.380469],[38.014258,6.30708],[37.943652,6.201807],[37.874805,6.108496],[37.842773,6.073145],[37.801953,6.049463],[37.738672,6.013623],[37.700684,6.0146],[37.695508,6.043848],[37.709082,6.088477],[37.744727,6.135937],[37.79043,6.171924],[37.826074,6.188574],[37.865234,6.220459],[37.886719,6.263281],[37.875195,6.360449],[37.863086,6.455273],[37.868848,6.490771],[37.935938,6.547607],[38.017188,6.589258],[38.055078,6.577686],[38.055078,6.577686],[38.055078,6.577686],[38.055078,6.577686]]]}},{"type":"Feature","properties":{},"bbox":[17.269336,46.721289,18.163672,47.054688],"geometry":{"type":"Polygon","coordinates":[[[17.585645,46.765674],[17.475879,46.723535],[17.277246,46.721289],[17.269336,46.742188],[17.270605,46.759961],[17.308594,46.763477],[17.383496,46.779004],[17.478711,46.800049],[17.66543,46.852344],[17.823633,46.911182],[17.881055,46.943213],[17.95459,46.987256],[18.039062,47.037109],[18.077539,47.054688],[18.130469,47.039258],[18.163672,47.010547],[18.142676,46.963086],[17.880859,46.866455],[17.672168,46.790527],[17.585645,46.765674],[17.585645,46.765674],[17.585645,46.765674],[17.585645,46.765674]]]}},{"type":"Feature","properties":{},"bbox":[82.837305,31.445117,83.34082,31.65166],"geometry":{"type":"Polygon","coordinates":[[[83.230273,31.463525],[83.201074,31.464258],[83.094336,31.491992],[82.99082,31.515088],[82.912598,31.51709],[82.857129,31.540967],[82.837305,31.564355],[82.894434,31.574756],[82.927832,31.596094],[82.933887,31.612451],[82.973828,31.627441],[83.05957,31.641113],[83.100098,31.65166],[83.141504,31.59668],[83.208789,31.556689],[83.290039,31.508301],[83.34082,31.461621],[83.333203,31.445117],[83.296094,31.44624],[83.230273,31.463525],[83.230273,31.463525],[83.230273,31.463525]]]}},{"type":"Feature","properties":{},"bbox":[86.396289,30.795215,86.777344,31.36665],"geometry":{"type":"Polygon","coordinates":[[[86.777344,31.166162],[86.763965,31.135596],[86.704395,31.122852],[86.628027,31.084375],[86.607324,31.034082],[86.565039,30.943213],[86.522656,30.857764],[86.493945,30.811035],[86.456641,30.795215],[86.419434,30.807031],[86.397168,30.840283],[86.396289,30.870947],[86.412207,30.893896],[86.445117,30.951562],[86.516016,31.05752],[86.607031,31.221143],[86.653906,31.36665],[86.741895,31.341895],[86.765234,31.256348],[86.777344,31.166162],[86.777344,31.166162],[86.777344,31.166162],[86.777344,31.166162]]]}},{"type":"Feature","properties":{},"bbox":[79.386523,52.829834,79.809375,53.143457],"geometry":{"type":"Polygon","coordinates":[[[79.769727,52.967139],[79.744434,52.932471],[79.73125,52.899512],[79.735645,52.872949],[79.750195,52.85957],[79.733594,52.841895],[79.691406,52.829834],[79.603125,52.837207],[79.516602,52.858203],[79.451074,52.899121],[79.4,52.943994],[79.386719,52.97417],[79.386523,53.006641],[79.399316,53.041357],[79.426953,53.075586],[79.472266,53.101953],[79.594336,53.143457],[79.6375,53.137305],[79.69541,53.118457],[79.737793,53.092041],[79.766602,53.04834],[79.790625,53.012256],[79.809375,52.996094],[79.769727,52.967139],[79.769727,52.967139],[79.769727,52.967139]]]}},{"type":"Feature","properties":{},"bbox":[72.922656,53.06958,73.423926,53.397607],"geometry":{"type":"Polygon","coordinates":[[[73.386523,53.06958],[73.325098,53.113379],[73.197266,53.205273],[73.087793,53.268945],[73.013867,53.270947],[72.958496,53.249658],[72.93291,53.259863],[72.922656,53.280811],[72.957324,53.309082],[72.980762,53.343848],[72.986914,53.368262],[73.031055,53.38418],[73.108789,53.395215],[73.203613,53.397607],[73.321094,53.382178],[73.40498,53.360986],[73.423926,53.337012],[73.421289,53.254736],[73.418555,53.153906],[73.408008,53.108252],[73.403125,53.0875],[73.406543,53.07168],[73.386523,53.06958],[73.386523,53.06958],[73.386523,53.06958],[73.386523,53.06958]]]}},{"type":"Feature","properties":{},"bbox":[79.822949,55.385059,80.32793,55.563721],"geometry":{"type":"Polygon","coordinates":[[[80.32793,55.539941],[80.308105,55.49375],[80.208203,55.452002],[80.099609,55.412744],[79.986523,55.38999],[79.898047,55.385059],[79.847266,55.396826],[79.823242,55.422559],[79.822949,55.452002],[79.88125,55.479102],[79.983984,55.515625],[80.085547,55.549951],[80.185547,55.563721],[80.268555,55.560693],[80.304785,55.562988],[80.32793,55.539941],[80.32793,55.539941],[80.32793,55.539941]]]}},{"type":"Feature","properties":{},"bbox":[71.624609,56.057959,72.00918,56.21123],"geometry":{"type":"Polygon","coordinates":[[[72.002637,56.202002],[72.00918,56.177051],[71.988672,56.142773],[71.947461,56.109131],[71.869043,56.106445],[71.817285,56.09502],[71.777734,56.086768],[71.750488,56.064014],[71.717578,56.057959],[71.675879,56.066895],[71.662207,56.114893],[71.624609,56.177637],[71.64248,56.191406],[71.721484,56.197021],[71.819727,56.189453],[71.862305,56.192041],[71.880078,56.205908],[71.941211,56.21123],[72.002637,56.202002],[72.002637,56.202002],[72.002637,56.202002],[72.002637,56.202002]]]}},{"type":"Feature","properties":{},"bbox":[67.296484,55.713037,67.678516,55.869189],"geometry":{"type":"Polygon","coordinates":[[[67.678516,55.800684],[67.640039,55.791797],[67.621094,55.780029],[67.608398,55.764795],[67.594141,55.749756],[67.503711,55.713037],[67.396191,55.718018],[67.297852,55.745264],[67.296484,55.777344],[67.320508,55.814844],[67.347852,55.850879],[67.350684,55.867529],[67.381738,55.869189],[67.433105,55.835156],[67.483008,55.806445],[67.536328,55.806055],[67.595117,55.821338],[67.668262,55.817236],[67.678516,55.800684],[67.678516,55.800684],[67.678516,55.800684],[67.678516,55.800684]]]}},{"type":"Feature","properties":{},"bbox":[25.92793,58.143457,26.142773,58.39624],"geometry":{"type":"Polygon","coordinates":[[[26.142773,58.327344],[26.140625,58.268799],[26.110254,58.209814],[26.084766,58.143457],[26.050977,58.14585],[26.003711,58.219482],[25.92793,58.305127],[25.940918,58.344971],[25.966113,58.381641],[26.019043,58.39624],[26.077441,58.391162],[26.121484,58.373682],[26.142773,58.327344],[26.142773,58.327344],[26.142773,58.327344],[26.142773,58.327344]]]}},{"type":"Feature","properties":{},"bbox":[44.972266,40.148828,45.65918,40.614355],"geometry":{"type":"Polygon","coordinates":[[[44.989648,40.51499],[44.972266,40.542334],[44.988867,40.582324],[44.98623,40.611572],[45.014551,40.614355],[45.095313,40.590332],[45.241699,40.510205],[45.31084,40.488281],[45.372949,40.47915],[45.437012,40.435156],[45.536719,40.364697],[45.601953,40.318262],[45.63623,40.278711],[45.655762,40.242676],[45.65918,40.21543],[45.651367,40.194971],[45.607617,40.172168],[45.543164,40.155518],[45.480664,40.155957],[45.38877,40.151416],[45.312695,40.148828],[45.275879,40.163818],[45.248438,40.197461],[45.218262,40.295898],[45.183496,40.385254],[45.15332,40.403564],[45.124609,40.428174],[45.095313,40.461084],[45.039844,40.490479],[44.989648,40.51499],[44.989648,40.51499],[44.989648,40.51499],[44.989648,40.51499]]]}},{"type":"Feature","properties":{},"bbox":[46.711719,30.663135,47.608496,30.91665],"geometry":{"type":"Polygon","coordinates":[[[47.608496,30.689453],[47.573145,30.663623],[47.491309,30.663135],[47.406934,30.677881],[47.245313,30.710645],[47.103711,30.740186],[47.039746,30.742383],[46.953027,30.733057],[46.878809,30.727344],[46.852051,30.721729],[46.822168,30.725342],[46.807227,30.7375],[46.804199,30.763672],[46.801758,30.785986],[46.791602,30.802539],[46.765332,30.816553],[46.750488,30.823242],[46.718652,30.836816],[46.711719,30.866846],[46.748438,30.902539],[46.800879,30.912939],[46.818262,30.9146],[46.860742,30.91665],[46.89668,30.899609],[46.925977,30.891602],[46.983008,30.856738],[47.062793,30.828076],[47.10332,30.825781],[47.145898,30.813525],[47.194434,30.800244],[47.289746,30.771533],[47.357422,30.782324],[47.429199,30.811865],[47.471973,30.813965],[47.499805,30.808936],[47.503906,30.796777],[47.530176,30.767773],[47.590039,30.712549],[47.608496,30.689453],[47.608496,30.689453],[47.608496,30.689453],[47.608496,30.689453]]]}},{"type":"Feature","properties":{},"bbox":[85.352344,30.759033,85.888965,31.045459],"geometry":{"type":"Polygon","coordinates":[[[85.888086,30.928809],[85.851172,30.886084],[85.84541,30.826562],[85.826563,30.783496],[85.801562,30.759033],[85.78252,30.759277],[85.786133,30.788965],[85.757031,30.839893],[85.692285,30.870166],[85.64043,30.868555],[85.600391,30.854932],[85.567676,30.841504],[85.512598,30.845752],[85.437988,30.871289],[85.377246,30.905664],[85.352344,30.944092],[85.36084,30.992236],[85.401758,31.03501],[85.47627,31.045459],[85.560742,31.028418],[85.64668,31.025049],[85.725195,31.02793],[85.810352,31.004541],[85.875391,30.978223],[85.888965,30.952246],[85.888086,30.928809],[85.888086,30.928809],[85.888086,30.928809],[85.888086,30.928809]]]}},{"type":"Feature","properties":{},"bbox":[42.395898,11.629297,42.446875,11.712012],"geometry":{"type":"Polygon","coordinates":[[[42.446875,11.677246],[42.441016,11.640039],[42.41709,11.629297],[42.398926,11.64502],[42.395898,11.671729],[42.398633,11.693359],[42.411328,11.712012],[42.436133,11.697119],[42.446875,11.677246],[42.446875,11.677246],[42.446875,11.677246]]]}},{"type":"Feature","properties":{},"bbox":[9.113184,47.506396,9.730664,47.782178],"geometry":{"type":"Polygon","coordinates":[[[9.730664,47.526904],[9.718555,47.514893],[9.685449,47.506396],[9.554395,47.511133],[9.452344,47.513965],[9.250293,47.597949],[9.182813,47.670703],[9.113184,47.772119],[9.132031,47.782178],[9.230762,47.733301],[9.372852,47.67666],[9.513965,47.624756],[9.644238,47.566357],[9.730664,47.526904],[9.730664,47.526904],[9.730664,47.526904],[9.730664,47.526904]]]}},{"type":"Feature","properties":{},"bbox":[35.376758,31.096338,35.522461,31.231738],"geometry":{"type":"Polygon","coordinates":[[[35.522461,31.177051],[35.516895,31.154443],[35.508398,31.125244],[35.497949,31.104932],[35.459277,31.096338],[35.416504,31.104395],[35.391406,31.135156],[35.376758,31.17793],[35.381836,31.215625],[35.400684,31.230518],[35.445605,31.231738],[35.493555,31.205029],[35.522461,31.177051],[35.522461,31.177051],[35.522461,31.177051],[35.522461,31.177051]]]}},{"type":"Feature","properties":{},"bbox":[35.533887,32.720312,35.63584,32.899707],"geometry":{"type":"Polygon","coordinates":[[[35.631641,32.781641],[35.615918,32.74917],[35.576855,32.720312],[35.55127,32.749609],[35.533887,32.803418],[35.53916,32.855615],[35.565039,32.891602],[35.598926,32.899707],[35.622852,32.878369],[35.63584,32.833838],[35.631641,32.781641],[35.631641,32.781641],[35.631641,32.781641],[35.631641,32.781641]]]}},{"type":"Feature","properties":{},"bbox":[72.635352,41.663086,73.300293,41.899561],"geometry":{"type":"Polygon","coordinates":[[[73.291016,41.759131],[73.266406,41.754687],[73.202246,41.74541],[73.107031,41.757129],[72.972461,41.755176],[72.839453,41.739844],[72.679102,41.663086],[72.653711,41.667432],[72.635352,41.687305],[72.657715,41.701318],[72.689258,41.728174],[72.708594,41.767432],[72.687891,41.822363],[72.658398,41.874219],[72.685449,41.899561],[72.817188,41.897803],[72.940039,41.87832],[73.011133,41.855469],[73.085547,41.828174],[73.239746,41.801123],[73.300293,41.776221],[73.291016,41.759131],[73.291016,41.759131],[73.291016,41.759131]]]}},{"type":"Feature","properties":{},"bbox":[81.125586,30.608252,81.309082,30.862549],"geometry":{"type":"Polygon","coordinates":[[[81.309082,30.635547],[81.289746,30.616943],[81.254785,30.608252],[81.211719,30.610791],[81.158008,30.633594],[81.125586,30.662158],[81.150293,30.687549],[81.184766,30.720508],[81.184375,30.804297],[81.199316,30.8521],[81.233984,30.862549],[81.275,30.838818],[81.294434,30.817285],[81.296484,30.789258],[81.252246,30.753271],[81.278516,30.708984],[81.308691,30.661816],[81.309082,30.635547],[81.309082,30.635547],[81.309082,30.635547],[81.309082,30.635547]]]}},{"type":"Feature","properties":{},"bbox":[81.373047,30.590869,81.584082,30.777832],"geometry":{"type":"Polygon","coordinates":[[[81.584082,30.7],[81.552441,30.654443],[81.494043,30.609863],[81.433691,30.590869],[81.391992,30.609717],[81.373047,30.65918],[81.375781,30.758154],[81.40918,30.777832],[81.459668,30.773828],[81.524414,30.757178],[81.573633,30.732617],[81.584082,30.7],[81.584082,30.7],[81.584082,30.7],[81.584082,30.7]]]}},{"type":"Feature","properties":{},"bbox":[-1.71499,6.338184,0.320117,9.116602],"geometry":{"type":"Polygon","coordinates":[[[0.271875,6.674512],[0.271875,6.674512],[0.271875,6.674512],[0.29873,6.718604],[0.316992,6.73833],[0.308594,6.697852],[0.275977,6.64834],[0.229688,6.615869],[0.191992,6.607471],[0.171875,6.614648],[0.159961,6.618066],[0.152051,6.610645],[0.153711,6.597021],[0.150781,6.570215],[0.14668,6.538281],[0.14043,6.505322],[0.13291,6.449561],[0.138086,6.365967],[0.10332,6.338184],[0.080957,6.352637],[0.073291,6.404053],[0.041113,6.405176],[-0.010986,6.379395],[-0.033447,6.408203],[-0.059912,6.45166],[-0.099316,6.489941],[-0.174805,6.532715],[-0.255273,6.585498],[-0.323779,6.621875],[-0.427637,6.66792],[-0.550293,6.717285],[-0.633643,6.75332],[-0.67373,6.801514],[-0.68374,6.834424],[-0.659863,6.83584],[-0.615967,6.807324],[-0.57959,6.784717],[-0.55083,6.81084],[-0.517822,6.793799],[-0.490576,6.736719],[-0.46665,6.722656],[-0.442187,6.72666],[-0.418652,6.731006],[-0.409277,6.765625],[-0.405957,6.816455],[-0.393359,6.828125],[-0.367773,6.772705],[-0.335303,6.716211],[-0.30542,6.717187],[-0.270752,6.722461],[-0.228467,6.733984],[-0.194043,6.74126],[-0.175098,6.724121],[-0.16333,6.685645],[-0.143652,6.648047],[-0.096484,6.628613],[-0.056934,6.62998],[-0.041309,6.676855],[-0.025537,6.720312],[-0.01748,6.732715],[-0.022852,6.748047],[-0.049365,6.768848],[-0.067139,6.788965],[-0.071338,6.809424],[-0.066309,6.825244],[-0.041943,6.847266],[-0.011475,6.85293],[0.012305,6.844824],[0.03042,6.849658],[0.076709,6.869678],[0.111719,6.896631],[0.103711,6.909619],[0.058984,6.914014],[0.04165,6.946484],[0.086621,6.973926],[0.120313,6.97124],[0.123242,6.983154],[0.098877,7.00415],[0.087939,7.022803],[0.092969,7.037012],[0.100977,7.05293],[0.097559,7.07998],[0.085547,7.12124],[0.08457,7.14707],[0.065918,7.151221],[0.045117,7.163916],[0.027637,7.176318],[0.010205,7.186816],[0.007324,7.209375],[0.014648,7.210693],[0.034766,7.200244],[0.063232,7.195361],[0.083252,7.193701],[0.098682,7.192822],[0.118164,7.203174],[0.141504,7.222461],[0.153027,7.241211],[0.160449,7.251807],[0.173926,7.252393],[0.183887,7.266162],[0.183887,7.28667],[0.172461,7.303857],[0.156055,7.308887],[0.134668,7.313428],[0.102051,7.342773],[0.067529,7.392773],[0.050146,7.432324],[0.050586,7.448828],[0.047363,7.460059],[0.045605,7.477539],[-0.002393,7.500342],[-0.062939,7.507617],[-0.05835,7.465625],[-0.06582,7.444336],[-0.106543,7.458057],[-0.128125,7.471533],[-0.136426,7.495557],[-0.157031,7.509863],[-0.206836,7.512354],[-0.242432,7.516553],[-0.232227,7.531934],[-0.20791,7.546387],[-0.168555,7.549902],[-0.134082,7.553369],[-0.104932,7.551172],[-0.071387,7.54873],[-0.026855,7.545898],[0.011816,7.542578],[-0.017773,7.591895],[-0.06377,7.641406],[-0.109961,7.64458],[-0.181982,7.646582],[-0.242285,7.638574],[-0.33584,7.617578],[-0.431836,7.593652],[-0.474561,7.589111],[-0.498047,7.596631],[-0.531152,7.576221],[-0.60332,7.553613],[-0.653711,7.55127],[-0.611328,7.567041],[-0.543457,7.599902],[-0.482666,7.624561],[-0.421533,7.648828],[-0.356641,7.664355],[-0.294385,7.667187],[-0.261963,7.684229],[-0.255713,7.706006],[-0.253809,7.720117],[-0.2104,7.714062],[-0.161475,7.721387],[-0.125488,7.740088],[-0.097656,7.746436],[-0.100342,7.755469],[-0.133984,7.76709],[-0.157275,7.778564],[-0.159375,7.794434],[-0.152148,7.813281],[-0.152441,7.840869],[-0.169824,7.889551],[-0.186133,7.926953],[-0.192383,7.955225],[-0.223779,7.977148],[-0.284717,8.015234],[-0.315186,8.03999],[-0.34375,8.038135],[-0.350537,8.001953],[-0.384473,7.979834],[-0.416797,7.972266],[-0.394434,7.999902],[-0.379395,8.048145],[-0.41543,8.078809],[-0.445801,8.091064],[-0.498242,8.056885],[-0.526562,8.062402],[-0.525684,8.127881],[-0.542871,8.153564],[-0.561426,8.134131],[-0.590869,8.100293],[-0.624365,8.084912],[-0.642773,8.086816],[-0.642871,8.106152],[-0.69292,8.10957],[-0.755615,8.101953],[-0.760547,8.118164],[-0.747754,8.134521],[-0.721045,8.134619],[-0.655371,8.14209],[-0.603809,8.158594],[-0.6,8.172949],[-0.621387,8.191064],[-0.675586,8.238672],[-0.724268,8.280273],[-0.753516,8.296875],[-0.795117,8.315479],[-0.801367,8.334375],[-0.783643,8.365723],[-0.837842,8.447266],[-0.912158,8.555127],[-0.9646,8.60376],[-0.998926,8.63042],[-1.04082,8.645605],[-1.086523,8.639893],[-1.128418,8.632324],[-1.140918,8.594629],[-1.152783,8.551318],[-1.180078,8.603613],[-1.218896,8.658252],[-1.25376,8.667627],[-1.303857,8.696582],[-1.35127,8.72373],[-1.40459,8.738965],[-1.442676,8.731348],[-1.488379,8.69707],[-1.544922,8.663574],[-1.604541,8.64375],[-1.663574,8.628516],[-1.71499,8.63042],[-1.663379,8.673242],[-1.591211,8.695166],[-1.518848,8.731348],[-1.466211,8.760986],[-1.412012,8.780811],[-1.376465,8.80459],[-1.355469,8.792334],[-1.294092,8.750391],[-1.269336,8.725635],[-1.126123,8.704687],[-1.061768,8.721826],[-1.06748,8.750391],[-1.096094,8.78374],[-1.133691,8.812988],[-1.145166,8.873633],[-1.174414,8.94458],[-1.178711,8.979053],[-1.17793,9.026514],[-1.174121,9.07417],[-1.151709,9.116602],[-1.130322,9.076074],[-1.126514,9.028418],[-1.124805,8.980762],[-1.120801,8.929395],[-1.105566,8.897021],[-1.075293,8.853027],[-1.044531,8.843066],[-1.025586,8.84375],[-0.996533,8.775293],[-0.931152,8.653125],[-0.873389,8.585547],[-0.842578,8.579004],[-0.81665,8.599512],[-0.817578,8.650488],[-0.823437,8.706885],[-0.808887,8.743115],[-0.79082,8.761377],[-0.782324,8.756055],[-0.795361,8.721045],[-0.806055,8.688672],[-0.769678,8.655566],[-0.722412,8.638525],[-0.70542,8.643066],[-0.706836,8.624902],[-0.757031,8.577539],[-0.804639,8.519922],[-0.797021,8.49707],[-0.781836,8.468555],[-0.721094,8.402148],[-0.659961,8.356641],[-0.626562,8.329248],[-0.594336,8.288379],[-0.565723,8.274805],[-0.554395,8.25083],[-0.526611,8.232373],[-0.484668,8.209473],[-0.448535,8.209473],[-0.393604,8.221484],[-0.355127,8.242725],[-0.317871,8.244043],[-0.285547,8.253125],[-0.245361,8.245117],[-0.201953,8.213086],[-0.192529,8.186182],[-0.256592,8.184912],[-0.32085,8.177246],[-0.330371,8.157812],[-0.308398,8.14248],[-0.262549,8.108398],[-0.190186,8.052588],[-0.127881,8.011182],[-0.103223,7.975732],[-0.081836,7.876367],[-0.052344,7.811475],[-0.024023,7.792578],[0.00166,7.793018],[0.018994,7.788672],[0.054639,7.792187],[0.070166,7.821143],[0.05791,7.862549],[0.056152,7.885645],[0.05918,7.919678],[0.073438,7.969385],[0.078711,8.003271],[0.061572,8.04082],[0.07002,8.080957],[0.099023,8.092969],[0.129297,8.086426],[0.153809,8.078027],[0.170313,8.086328],[0.165137,8.115234],[0.151758,8.161035],[0.12334,8.209961],[0.105273,8.241992],[0.136719,8.253613],[0.169238,8.289111],[0.198047,8.338184],[0.217383,8.363281],[0.160742,8.380957],[0.091992,8.403125],[0.080566,8.429102],[0.092676,8.460547],[0.090625,8.499951],[0.085498,8.547998],[0.105664,8.583008],[0.135352,8.597607],[0.149512,8.633008],[0.160059,8.700391],[0.183887,8.741699],[0.197656,8.738232],[0.184668,8.689844],[0.168359,8.625195],[0.152246,8.592432],[0.127539,8.574316],[0.121484,8.518359],[0.112891,8.457373],[0.102637,8.433789],[0.114648,8.415674],[0.178125,8.399268],[0.24209,8.379102],[0.260547,8.355176],[0.279785,8.340723],[0.293555,8.334424],[0.284082,8.326855],[0.242383,8.321973],[0.214258,8.314209],[0.21709,8.295996],[0.190039,8.251025],[0.183594,8.205615],[0.200977,8.165771],[0.231055,8.125439],[0.267773,8.106152],[0.266797,8.094336],[0.240234,8.088037],[0.197852,8.079346],[0.161035,8.05957],[0.145508,8.020654],[0.121191,7.972021],[0.108496,7.938721],[0.123926,7.913184],[0.145801,7.894189],[0.167773,7.863281],[0.221191,7.88252],[0.25752,7.90498],[0.251172,7.875586],[0.252148,7.862744],[0.247754,7.849268],[0.237012,7.833545],[0.247852,7.80293],[0.277539,7.762354],[0.279199,7.699023],[0.280957,7.616504],[0.281738,7.575391],[0.258984,7.581445],[0.24043,7.577881],[0.22832,7.556396],[0.228906,7.536377],[0.242188,7.510693],[0.249805,7.490771],[0.285254,7.514648],[0.320117,7.54248],[0.313477,7.505615],[0.301855,7.470215],[0.296973,7.452637],[0.295313,7.415723],[0.287207,7.381689],[0.276367,7.353076],[0.276758,7.339307],[0.277344,7.329785],[0.29248,7.303125],[0.29375,7.27793],[0.275684,7.25791],[0.271582,7.234326],[0.279395,7.217871],[0.280664,7.200586],[0.279297,7.182178],[0.275781,7.172314],[0.271387,7.137549],[0.288574,7.106348],[0.305176,7.098975],[0.299805,7.071289],[0.28125,7.047363],[0.272852,7.001172],[0.263477,6.94834],[0.240039,6.896338],[0.237109,6.768311],[0.253906,6.6729],[0.271875,6.674512]],[[0.130371,6.679102],[0.130371,6.679102],[0.130371,6.679102],[0.180762,6.725928],[0.15918,6.766748],[0.114746,6.795605],[0.061914,6.807617],[0.01748,6.77876],[0.011475,6.717529],[0.04873,6.694678],[0.089551,6.658643],[0.130371,6.679102]]]}},{"type":"Feature","properties":{},"bbox":[58.221012,44.42472,59.302889,46.002393],"geometry":{"type":"Polygon","coordinates":[[[58.312075,45.06201],[58.37249,45.130523],[58.417007,45.290684],[58.549367,45.40771],[58.57403,45.532132],[58.638358,45.590201],[58.652714,45.721985],[58.711704,45.834903],[58.838334,45.834166],[58.81367,45.881653],[58.849377,45.918096],[59.059936,45.894536],[59.079078,45.943495],[59.179204,45.925826],[59.240311,45.993926],[59.302889,46.002393],[59.243992,45.892328],[59.104846,45.896745],[58.914165,45.794779],[58.869437,45.596097],[58.766184,45.562685],[58.671948,45.459614],[58.629247,45.263779],[58.682255,45.129787],[58.54679,45.007574],[58.588019,44.989905],[58.567036,44.915178],[58.624462,44.817997],[58.562619,44.772352],[58.524336,44.569155],[58.483107,44.504367],[58.364275,44.42472],[58.260032,44.431481],[58.235001,44.46093],[58.236776,44.524463],[58.321139,44.603021],[58.221012,44.84671],[58.312075,45.06201]]]}},{"type":"Feature","properties":{},"bbox":[59.988403,46.085954,61.528486,46.783892],"geometry":{"type":"Polygon","coordinates":[[[60.782878,46.085954],[60.752342,46.117724],[60.824808,46.201046],[60.722416,46.374185],[60.579589,46.2932],[60.348415,46.402897],[60.133439,46.356515],[59.988403,46.437868],[60.001655,46.57186],[60.286665,46.700146],[60.367649,46.616953],[60.401081,46.509323],[60.410398,46.504097],[60.42017,46.508414],[60.453347,46.617945],[60.459255,46.623399],[60.470617,46.62249],[60.580049,46.563025],[60.740808,46.627035],[60.745807,46.638851],[60.745353,46.653395],[60.525568,46.750762],[60.524832,46.777266],[60.580049,46.783892],[60.810767,46.747149],[60.776068,46.581431],[60.892391,46.473206],[61.133871,46.449647],[61.255738,46.492507],[61.263919,46.499779],[61.265282,46.512505],[61.202564,46.577496],[61.296576,46.61088],[61.314981,46.647691],[61.528486,46.677139],[61.450446,46.584376],[61.369814,46.527503],[61.283462,46.447514],[61.300257,46.38486],[61.217064,46.236879],[60.976685,46.16988],[60.862482,46.090003],[60.782878,46.085954]]]}},{"type":"Feature","properties":{},"bbox":[59.504062,46.082839,59.813275,46.321671],"geometry":{"type":"Polygon","coordinates":[[[59.728654,46.082839],[59.591672,46.209087],[59.504062,46.318784],[59.730822,46.321671],[59.784562,46.284181],[59.813275,46.123685],[59.728654,46.082839]]]}},{"type":"Feature","properties":{},"bbox":[73.436719,44.988916,79.245117,46.818066],"geometry":{"type":"Polygon","coordinates":[[[78.99082,46.748633],[78.99082,46.748633],[78.99082,46.748633],[78.99082,46.748633],[79.018848,46.768457],[79.022168,46.794922],[79.051855,46.807715],[79.08418,46.810107],[79.121875,46.798828],[79.176758,46.763867],[79.221973,46.72041],[79.244727,46.679688],[79.245117,46.645166],[79.235547,46.633545],[79.217285,46.609717],[79.157422,46.602783],[79.094922,46.581592],[79.067969,46.52583],[79.022754,46.447461],[78.971094,46.406006],[78.889844,46.369922],[78.787402,46.384814],[78.711328,46.396387],[78.625293,46.379834],[78.544336,46.401367],[78.46543,46.392432],[78.438379,46.376855],[78.435156,46.351758],[78.462109,46.312793],[78.445117,46.297168],[78.408691,46.298828],[78.367383,46.338525],[78.317285,46.349854],[78.233398,46.336865],[78.160645,46.318652],[78.127539,46.318652],[78.075195,46.328271],[78.017578,46.342627],[77.86543,46.428662],[77.81748,46.439404],[77.781152,46.422852],[77.725781,46.407129],[77.652148,46.41543],[77.562598,46.435449],[77.429297,46.499658],[77.355273,46.502246],[77.282031,46.472949],[77.165137,46.489014],[77.103906,46.454248],[77.003613,46.463672],[76.852637,46.492285],[76.741797,46.531982],[76.463965,46.541895],[76.238477,46.554883],[76.17627,46.531982],[76.033301,46.51167],[75.909375,46.535742],[75.866992,46.535645],[75.714551,46.516455],[75.611328,46.507178],[75.557813,46.530322],[75.514844,46.566699],[75.491602,46.596484],[75.490234,46.631006],[75.508203,46.636182],[75.548047,46.634473],[75.562402,46.645996],[75.559766,46.652979],[75.552832,46.672559],[75.50918,46.678027],[75.463281,46.670605],[75.417188,46.641113],[75.404004,46.609717],[75.432129,46.541895],[75.448047,46.49834],[75.405664,46.470801],[75.350098,46.469873],[75.330078,46.512695],[75.304004,46.519385],[75.277734,46.514893],[75.255859,46.47417],[75.24082,46.447656],[75.212207,46.426611],[75.151855,46.4375],[75.121094,46.446436],[75.093164,46.460889],[75.066699,46.450977],[75.0125,46.41709],[74.91123,46.404639],[74.888086,46.376562],[74.856641,46.293945],[74.815234,46.215625],[74.793848,46.130273],[74.771387,46.107812],[74.599219,46.022217],[74.549902,46.005908],[74.369922,46.020068],[74.278027,46.004053],[74.258203,45.976709],[74.253125,45.94165],[74.30332,45.789795],[74.289258,45.764697],[74.250781,45.761035],[74.242871,45.75166],[74.245313,45.739502],[74.310938,45.695459],[74.312695,45.670947],[74.289453,45.650635],[74.230762,45.615332],[74.100586,45.536865],[74.089355,45.509082],[74.082813,45.352051],[74.086523,45.343506],[74.12832,45.336865],[74.150977,45.317285],[74.155664,45.270557],[74.143359,45.10293],[74.135645,45.070166],[74.100977,45.058594],[74.094238,45.040088],[74.119531,44.999707],[74.1,44.988916],[74.056055,44.994434],[74.017188,45.012939],[74.00957,45.033789],[74.015625,45.056494],[73.993359,45.112354],[74.007715,45.146533],[73.999316,45.188721],[73.980664,45.204199],[73.876758,45.239258],[73.839746,45.263867],[73.662695,45.435645],[73.614746,45.51333],[73.465234,45.582471],[73.436719,45.609473],[73.443652,45.657031],[73.494336,45.686572],[73.531836,45.73418],[73.518848,45.763037],[73.451074,45.77959],[73.440039,45.805859],[73.463477,45.82627],[73.488281,45.831104],[73.559863,45.816357],[73.63252,45.906738],[73.715137,45.98252],[73.737109,46.012744],[73.662695,46.062354],[73.654004,46.092676],[73.645508,46.15],[73.679297,46.183057],[73.751953,46.202637],[73.774902,46.206494],[73.829395,46.185107],[73.897559,46.207861],[73.981836,46.186377],[74.020703,46.204883],[74.026953,46.222461],[73.949512,46.288379],[74.023242,46.369336],[74.094336,46.427832],[74.279785,46.470215],[74.374609,46.518018],[74.42998,46.578271],[74.524219,46.622949],[74.553125,46.690234],[74.625391,46.7521],[74.804297,46.780566],[74.939355,46.816797],[74.974023,46.814062],[75.088672,46.813623],[75.162695,46.774561],[75.200586,46.758789],[75.338477,46.729932],[75.426758,46.7375],[75.825879,46.818066],[75.950586,46.795117],[76.203125,46.780029],[76.297656,46.752881],[76.335938,46.728613],[76.405176,46.662256],[76.450488,46.640723],[76.496289,46.635547],[76.6,46.6646],[76.668359,46.673389],[76.699609,46.66748],[76.793066,46.630664],[76.859277,46.643848],[77.082422,46.624609],[77.174805,46.555957],[77.226367,46.566699],[77.266016,46.611377],[77.370313,46.622754],[77.601562,46.640039],[77.644727,46.656055],[77.690039,46.658643],[77.859961,46.647852],[78.136328,46.594922],[78.169336,46.580176],[78.29707,46.468555],[78.324316,46.482227],[78.347852,46.512061],[78.358789,46.623437],[78.367773,46.64292],[78.39707,46.657666],[78.433203,46.65249],[78.451953,46.618066],[78.476465,46.624609],[78.503906,46.664697],[78.551367,46.707373],[78.580566,46.723096],[78.630273,46.746973],[78.760938,46.723828],[78.783887,46.734912],[78.787305,46.75498],[78.793066,46.780029],[78.822949,46.794824],[78.868164,46.79873],[78.92959,46.78833],[78.99082,46.748633]]]}},{"type":"Feature","properties":{},"bbox":[33.696191,45.255371,35.439063,46.266602],"geometry":{"type":"Polygon","coordinates":[[[35.399023,45.255371],[35.276367,45.302148],[35.089453,45.357861],[35.061914,45.378711],[35.042578,45.40249],[35.040234,45.428516],[35.080273,45.499316],[35.05166,45.565137],[35.024219,45.603857],[35.000293,45.630713],[34.882031,45.687305],[34.833887,45.724561],[34.762305,45.742969],[34.742676,45.786475],[34.683008,45.803613],[34.67627,45.819141],[34.644922,45.837451],[34.495215,45.785303],[34.495117,45.802832],[34.618262,45.914844],[34.619238,45.934961],[34.607617,45.943799],[34.567773,45.952393],[34.525195,45.906543],[34.49668,45.899219],[34.459766,45.91709],[34.411719,45.889795],[34.390039,45.887891],[34.37998,45.901318],[34.387891,45.950391],[34.381836,45.979199],[34.3625,46.000342],[34.271484,46.026855],[34.226953,46.021436],[34.189746,46.02959],[34.181934,46.016064],[34.187109,45.976562],[34.186621,45.95625],[34.164453,45.944385],[34.140332,45.962598],[34.132812,46.009717],[34.121484,46.02583],[34.072363,46.059277],[33.99834,46.072266],[33.977734,46.051807],[33.960156,46.040039],[33.924316,46.039111],[33.885059,46.059912],[33.831348,46.143408],[33.815234,46.142334],[33.770508,46.133301],[33.707617,46.181787],[33.696191,46.200293],[33.703906,46.214844],[33.728027,46.228125],[33.778125,46.233984],[33.848242,46.230713],[33.922266,46.21333],[34.02959,46.157324],[34.077637,46.141504],[34.106836,46.144336],[34.10332,46.182178],[34.111719,46.192773],[34.12959,46.190186],[34.147168,46.191357],[34.16377,46.20293],[34.158008,46.248486],[34.158594,46.266602],[34.174609,46.266016],[34.236426,46.213867],[34.269531,46.191357],[34.297656,46.181396],[34.311523,46.180078],[34.328613,46.189795],[34.544238,46.161182],[34.554883,46.137793],[34.548242,46.114893],[34.49248,46.11333],[34.469141,46.101123],[34.428516,46.022363],[34.443359,45.998828],[34.478711,45.983252],[34.523242,45.988135],[34.588477,46.020703],[34.640234,46.153027],[34.666699,46.173486],[34.716406,46.164648],[34.753711,46.13125],[34.75459,46.112695],[34.717676,46.090479],[34.712891,46.052832],[34.739844,46.034961],[34.788867,46.024463],[34.816211,45.959473],[34.84043,45.842969],[34.908984,45.792627],[35.031836,45.638184],[35.182031,45.472217],[35.3,45.36377],[35.426172,45.294971],[35.439063,45.275439],[35.399023,45.255371],[35.399023,45.255371],[35.399023,45.255371]]]}},{"type":"Feature","properties":{},"bbox":[83.026758,47.699121,84.515625,49.726367],"geometry":{"type":"Polygon","coordinates":[[[84.515625,47.929883],[84.42666,47.856885],[84.394336,47.816162],[84.356836,47.732129],[84.295996,47.699121],[84.241797,47.706445],[83.994336,47.843262],[83.765625,47.951172],[83.624609,48.012793],[83.444531,48.048828],[83.258984,48.094629],[83.082617,48.178223],[83.026758,48.211865],[83.038574,48.249609],[83.182129,48.249365],[83.275098,48.261328],[83.435254,48.269971],[83.497559,48.304541],[83.532617,48.375146],[83.460742,48.432275],[83.392188,48.499854],[83.387012,48.554004],[83.417383,48.597461],[83.422656,48.743213],[83.471191,48.858203],[83.589453,48.962402],[83.747266,49.039258],[83.87168,49.062695],[84.036133,49.110596],[84.120605,49.159082],[84.099805,49.238037],[83.972461,49.328809],[83.848535,49.41709],[83.724414,49.439551],[83.660352,49.44292],[83.608008,49.48623],[83.538965,49.531885],[83.478906,49.538232],[83.426465,49.573389],[83.364844,49.626074],[83.363672,49.643848],[83.391211,49.652393],[83.608203,49.60625],[83.739844,49.630957],[83.889844,49.72041],[83.963574,49.726367],[83.96123,49.702637],[83.818262,49.633643],[83.79668,49.597119],[83.756543,49.564355],[83.729492,49.535205],[83.823145,49.483936],[84.287793,49.237695],[84.360645,49.160547],[84.328613,49.124854],[84.149023,49.086035],[83.864062,48.994385],[83.776758,48.975391],[83.60918,48.9104],[83.514063,48.81333],[83.486914,48.718262],[83.516797,48.616846],[83.613379,48.437256],[83.773926,48.410449],[83.919434,48.397217],[83.907129,48.373535],[83.681934,48.353418],[83.596191,48.303027],[83.58125,48.26748],[83.633594,48.241504],[83.740039,48.197656],[83.880664,48.151904],[84.051465,48.083496],[84.16709,48.055957],[84.333887,48.023096],[84.468359,47.969385],[84.515625,47.929883],[84.515625,47.929883],[84.515625,47.929883],[84.515625,47.929883]]]}},{"type":"Feature","properties":{},"bbox":[33.539844,46.822217,35.301758,47.841602],"geometry":{"type":"Polygon","coordinates":[[[35.301758,47.491797],[35.269434,47.450488],[35.213184,47.449902],[35.049023,47.428174],[34.960547,47.406494],[34.807715,47.463135],[34.592383,47.520117],[34.419434,47.486963],[34.189844,47.419971],[34.176758,47.389307],[34.183398,47.345654],[34.172852,47.324561],[34.097168,47.316064],[33.904102,47.15874],[33.718164,46.940576],[33.699707,46.89873],[33.687305,46.860645],[33.559375,46.822217],[33.539844,46.83125],[33.575879,46.882568],[33.629785,47.033984],[33.655371,47.050293],[33.666797,47.041992],[33.704688,47.06084],[33.761328,47.119043],[33.777148,47.1625],[33.834766,47.212256],[33.933496,47.282422],[33.962793,47.33125],[33.964551,47.358936],[33.947266,47.451416],[33.936133,47.541455],[33.983984,47.555713],[34.066992,47.55835],[34.147852,47.542285],[34.210742,47.536182],[34.240332,47.574902],[34.266211,47.589893],[34.31582,47.566797],[34.380273,47.55752],[34.436328,47.568896],[34.486621,47.592969],[34.730664,47.577539],[34.99707,47.587598],[35.087793,47.675537],[35.085645,47.824316],[35.105664,47.841602],[35.130273,47.840039],[35.242383,47.647266],[35.301758,47.491797],[35.301758,47.491797],[35.301758,47.491797]]]}},{"type":"Feature","properties":{},"bbox":[48.378027,53.26958,51.936523,55.832715],"geometry":{"type":"Polygon","coordinates":[[[48.387305,54.167969],[48.378027,54.231152],[48.39873,54.33667],[48.40459,54.45249],[48.41582,54.597168],[48.551465,54.652197],[48.745117,54.675049],[48.808203,54.73291],[48.831543,54.803662],[48.86377,54.870801],[48.859473,55.011621],[48.976855,55.073975],[49.159473,55.163086],[49.172266,55.292676],[49.103516,55.352881],[49.047656,55.442822],[49.058984,55.482666],[49.119531,55.475928],[49.188867,55.381201],[49.233496,55.337939],[49.30332,55.323389],[49.358008,55.339062],[49.328125,55.378906],[49.331934,55.451563],[49.329004,55.517773],[49.367383,55.544385],[49.367676,55.524268],[49.371289,55.464795],[49.454883,55.403613],[49.582813,55.390234],[49.788281,55.383496],[49.999902,55.415039],[50.089551,55.462793],[50.224805,55.438428],[50.379102,55.430518],[50.481445,55.459961],[50.675195,55.450635],[50.833887,55.479541],[51.125781,55.501123],[51.25498,55.526172],[51.331055,55.498926],[51.353418,55.495557],[51.413867,55.494385],[51.469141,55.511279],[51.466602,55.589844],[51.398047,55.684912],[51.413672,55.774463],[51.448145,55.812305],[51.480273,55.832715],[51.471582,55.79502],[51.46084,55.700977],[51.521484,55.632324],[51.634961,55.645898],[51.763477,55.720459],[51.874707,55.703613],[51.936523,55.699072],[51.88584,55.67085],[51.799609,55.683936],[51.748438,55.675293],[51.727734,55.643018],[51.714453,55.592822],[51.615039,55.565381],[51.550195,55.558398],[51.52373,55.503027],[51.410449,55.441016],[51.205859,55.488721],[51.174219,55.463477],[51.198438,55.441162],[51.21875,55.400146],[51.184277,55.357422],[51.129785,55.393018],[51.071094,55.415039],[50.877148,55.452051],[50.763574,55.428857],[50.734473,55.40708],[49.891992,55.293701],[49.810742,55.243652],[49.69248,55.190723],[49.523242,55.133887],[49.460742,55.114111],[49.452148,55.073633],[49.445508,55.051611],[49.396094,55.016064],[49.319727,55.01377],[49.224414,55.02334],[49.136426,54.997852],[49.008496,54.970068],[48.939844,54.90166],[48.969336,54.828125],[49.030273,54.808691],[49.097852,54.800488],[49.080664,54.775732],[48.986328,54.727637],[48.976074,54.666943],[48.973145,54.641211],[48.942578,54.616553],[48.895508,54.581543],[48.908789,54.549561],[48.89502,54.527979],[48.862988,54.500977],[48.864063,54.462256],[48.786523,54.447363],[48.63125,54.43501],[48.52959,54.394238],[48.499414,54.334375],[48.549414,54.240527],[48.658984,54.170898],[48.755859,54.150342],[48.798047,54.130811],[48.808887,54.098682],[48.847656,54.04541],[49.020313,54.015186],[49.275195,54.070703],[49.395313,54.119775],[49.563281,54.179443],[49.727344,54.225098],[49.742188,54.190723],[49.666406,54.159375],[49.536816,54.12666],[49.441211,54.037695],[49.308789,53.973047],[49.217871,53.934424],[49.219141,53.878027],[49.269727,53.818018],[49.320215,53.791309],[49.350684,53.770166],[49.371777,53.730469],[49.368945,53.694824],[49.344531,53.698242],[49.310352,53.722314],[49.279297,53.728125],[49.189844,53.807422],[49.126758,53.824756],[49.091113,53.793945],[49.071875,53.713281],[49.062988,53.606592],[49.086719,53.534033],[49.24668,53.5021],[49.56084,53.498779],[49.881641,53.485596],[49.904785,53.456738],[49.851855,53.426025],[49.494727,53.435986],[49.316113,53.402246],[49.257715,53.3521],[49.229883,53.284229],[49.094141,53.26958],[48.800781,53.280566],[48.759375,53.323779],[48.924805,53.309033],[49.136523,53.308936],[49.205859,53.337549],[49.20498,53.367578],[49.106445,53.40498],[48.991895,53.439795],[49.008789,53.459668],[48.955859,53.535352],[48.86543,53.647656],[48.876758,53.754297],[48.903125,53.827539],[48.882812,53.865918],[48.813379,53.938672],[48.66123,54.037891],[48.566797,54.09751],[48.468066,54.124414],[48.387305,54.167969],[48.387305,54.167969],[48.387305,54.167969]]]}},{"type":"Feature","properties":{},"bbox":[31.090625,21.60918,33.007422,23.987695],"geometry":{"type":"Polygon","coordinates":[[[32.234277,22.673877],[32.167285,22.680371],[32.127344,22.688379],[32.095508,22.683008],[32.055566,22.664648],[32.020215,22.634131],[31.986328,22.599658],[31.961914,22.572949],[31.952734,22.535205],[31.935742,22.481104],[31.897461,22.441406],[31.855371,22.414746],[31.831055,22.381006],[31.825684,22.351318],[31.791211,22.358057],[31.746094,22.362695],[31.713574,22.351465],[31.69375,22.333984],[31.678516,22.326855],[31.663672,22.32207],[31.645215,22.311719],[31.640234,22.296973],[31.647656,22.272998],[31.624902,22.242285],[31.552344,22.209033],[31.486523,22.159277],[31.441016,22.101855],[31.412109,22.057227],[31.390625,21.984473],[31.35459,21.880518],[31.319336,21.812256],[31.294531,21.784814],[31.256543,21.763525],[31.203223,21.708838],[31.155957,21.649219],[31.123535,21.611523],[31.090625,21.60918],[31.111914,21.671094],[31.168945,21.748828],[31.236133,21.847949],[31.303223,21.931641],[31.335742,22.010352],[31.372363,22.102686],[31.449707,22.210059],[31.592969,22.338721],[31.684082,22.430078],[31.704297,22.452881],[31.739746,22.469922],[31.78457,22.483496],[31.752344,22.534863],[31.679102,22.604199],[31.675684,22.625781],[31.729102,22.602832],[31.794238,22.569238],[31.824219,22.565186],[31.84082,22.583398],[31.86377,22.613525],[31.884375,22.63916],[31.91123,22.660889],[31.965039,22.697754],[32.024219,22.733594],[32.061133,22.752441],[32.088379,22.763525],[32.132227,22.780566],[32.167188,22.788281],[32.190723,22.779492],[32.222461,22.769336],[32.292188,22.7229],[32.337402,22.691016],[32.412891,22.694482],[32.500586,22.758057],[32.526172,22.794727],[32.542188,22.829248],[32.561719,22.89917],[32.582031,22.929102],[32.613867,22.967529],[32.635547,23.004199],[32.66748,23.077539],[32.7,23.151172],[32.739063,23.228955],[32.787988,23.272559],[32.819336,23.277588],[32.832813,23.292725],[32.843164,23.318018],[32.855859,23.342383],[32.851172,23.382031],[32.85293,23.438086],[32.841016,23.482861],[32.786914,23.502832],[32.743359,23.516064],[32.705957,23.493408],[32.661133,23.472266],[32.621777,23.476709],[32.599023,23.495801],[32.650391,23.533984],[32.706738,23.57041],[32.696973,23.587354],[32.675684,23.59375],[32.661133,23.580273],[32.646094,23.567383],[32.624414,23.587451],[32.654883,23.63291],[32.738867,23.624121],[32.797754,23.58374],[32.834375,23.618555],[32.853906,23.676514],[32.843457,23.707617],[32.848438,23.733252],[32.870117,23.75957],[32.87334,23.791602],[32.863281,23.828662],[32.827734,23.872998],[32.822949,23.909766],[32.879492,23.987695],[32.933008,23.940576],[32.94502,23.791211],[32.985938,23.695459],[32.980566,23.655371],[32.950977,23.642871],[32.920703,23.634082],[32.90918,23.609912],[32.910938,23.583984],[32.92373,23.56748],[32.941309,23.562793],[32.951172,23.555127],[32.987891,23.529736],[33.004785,23.50874],[32.950586,23.508594],[32.921875,23.484521],[32.944141,23.429736],[32.979004,23.396484],[32.989941,23.371094],[32.995313,23.337207],[33.006055,23.300342],[33.007129,23.260449],[33.007422,23.236963],[32.994922,23.230664],[32.957227,23.240771],[32.921289,23.249365],[32.929492,23.204297],[32.910742,23.160645],[32.864941,23.156445],[32.852637,23.142187],[32.855078,23.117432],[32.869043,23.088184],[32.906641,23.050928],[32.943652,23.003662],[32.990137,22.955078],[32.971875,22.934814],[32.858594,22.978125],[32.784961,23.039014],[32.743555,23.03252],[32.739063,23.007959],[32.72207,22.971973],[32.704785,22.946973],[32.689844,22.937988],[32.660059,22.921826],[32.631836,22.905957],[32.618359,22.896143],[32.61084,22.868994],[32.607129,22.822949],[32.586328,22.783008],[32.516309,22.724512],[32.429492,22.650977],[32.368066,22.604199],[32.331934,22.580859],[32.327832,22.550146],[32.296973,22.531299],[32.254492,22.535938],[32.248438,22.547021],[32.270117,22.564209],[32.298828,22.59209],[32.295703,22.611621],[32.278516,22.622559],[32.25625,22.641553],[32.238379,22.658643],[32.234277,22.673877],[32.234277,22.673877],[32.234277,22.673877],[32.234277,22.673877]]]}},{"type":"Feature","properties":{},"bbox":[-1.71499,6.338184,0.320117,9.116602],"geometry":{"type":"Polygon","coordinates":[[[0.271875,6.674512],[0.271875,6.674512],[0.271875,6.674512],[0.29873,6.718604],[0.316992,6.73833],[0.308594,6.697852],[0.275977,6.64834],[0.229688,6.615869],[0.191992,6.607471],[0.171875,6.614648],[0.159961,6.618066],[0.152051,6.610645],[0.153711,6.597021],[0.150781,6.570215],[0.14668,6.538281],[0.14043,6.505322],[0.13291,6.449561],[0.138086,6.365967],[0.10332,6.338184],[0.080957,6.352637],[0.073291,6.404053],[0.041113,6.405176],[-0.010986,6.379395],[-0.033447,6.408203],[-0.059912,6.45166],[-0.099316,6.489941],[-0.174805,6.532715],[-0.255273,6.585498],[-0.323779,6.621875],[-0.427637,6.66792],[-0.550293,6.717285],[-0.633643,6.75332],[-0.67373,6.801514],[-0.68374,6.834424],[-0.659863,6.83584],[-0.615967,6.807324],[-0.57959,6.784717],[-0.55083,6.81084],[-0.517822,6.793799],[-0.490576,6.736719],[-0.46665,6.722656],[-0.442187,6.72666],[-0.418652,6.731006],[-0.409277,6.765625],[-0.405957,6.816455],[-0.393359,6.828125],[-0.367773,6.772705],[-0.335303,6.716211],[-0.30542,6.717187],[-0.270752,6.722461],[-0.228467,6.733984],[-0.194043,6.74126],[-0.175098,6.724121],[-0.16333,6.685645],[-0.143652,6.648047],[-0.096484,6.628613],[-0.056934,6.62998],[-0.041309,6.676855],[-0.025537,6.720312],[-0.01748,6.732715],[-0.022852,6.748047],[-0.049365,6.768848],[-0.067139,6.788965],[-0.071338,6.809424],[-0.066309,6.825244],[-0.041943,6.847266],[-0.011475,6.85293],[0.012305,6.844824],[0.03042,6.849658],[0.076709,6.869678],[0.111719,6.896631],[0.103711,6.909619],[0.058984,6.914014],[0.04165,6.946484],[0.086621,6.973926],[0.120313,6.97124],[0.123242,6.983154],[0.098877,7.00415],[0.087939,7.022803],[0.092969,7.037012],[0.100977,7.05293],[0.097559,7.07998],[0.085547,7.12124],[0.08457,7.14707],[0.065918,7.151221],[0.045117,7.163916],[0.027637,7.176318],[0.010205,7.186816],[0.007324,7.209375],[0.014648,7.210693],[0.034766,7.200244],[0.063232,7.195361],[0.083252,7.193701],[0.098682,7.192822],[0.118164,7.203174],[0.141504,7.222461],[0.153027,7.241211],[0.160449,7.251807],[0.173926,7.252393],[0.183887,7.266162],[0.183887,7.28667],[0.172461,7.303857],[0.156055,7.308887],[0.134668,7.313428],[0.102051,7.342773],[0.067529,7.392773],[0.050146,7.432324],[0.050586,7.448828],[0.047363,7.460059],[0.045605,7.477539],[-0.002393,7.500342],[-0.062939,7.507617],[-0.05835,7.465625],[-0.06582,7.444336],[-0.106543,7.458057],[-0.128125,7.471533],[-0.136426,7.495557],[-0.157031,7.509863],[-0.206836,7.512354],[-0.242432,7.516553],[-0.232227,7.531934],[-0.20791,7.546387],[-0.168555,7.549902],[-0.134082,7.553369],[-0.104932,7.551172],[-0.071387,7.54873],[-0.026855,7.545898],[0.011816,7.542578],[-0.017773,7.591895],[-0.06377,7.641406],[-0.109961,7.64458],[-0.181982,7.646582],[-0.242285,7.638574],[-0.33584,7.617578],[-0.431836,7.593652],[-0.474561,7.589111],[-0.498047,7.596631],[-0.531152,7.576221],[-0.60332,7.553613],[-0.653711,7.55127],[-0.611328,7.567041],[-0.543457,7.599902],[-0.482666,7.624561],[-0.421533,7.648828],[-0.356641,7.664355],[-0.294385,7.667187],[-0.261963,7.684229],[-0.255713,7.706006],[-0.253809,7.720117],[-0.2104,7.714062],[-0.161475,7.721387],[-0.125488,7.740088],[-0.097656,7.746436],[-0.100342,7.755469],[-0.133984,7.76709],[-0.157275,7.778564],[-0.159375,7.794434],[-0.152148,7.813281],[-0.152441,7.840869],[-0.169824,7.889551],[-0.186133,7.926953],[-0.192383,7.955225],[-0.223779,7.977148],[-0.284717,8.015234],[-0.315186,8.03999],[-0.34375,8.038135],[-0.350537,8.001953],[-0.384473,7.979834],[-0.416797,7.972266],[-0.394434,7.999902],[-0.379395,8.048145],[-0.41543,8.078809],[-0.445801,8.091064],[-0.498242,8.056885],[-0.526562,8.062402],[-0.525684,8.127881],[-0.542871,8.153564],[-0.561426,8.134131],[-0.590869,8.100293],[-0.624365,8.084912],[-0.642773,8.086816],[-0.642871,8.106152],[-0.69292,8.10957],[-0.755615,8.101953],[-0.760547,8.118164],[-0.747754,8.134521],[-0.721045,8.134619],[-0.655371,8.14209],[-0.603809,8.158594],[-0.6,8.172949],[-0.621387,8.191064],[-0.675586,8.238672],[-0.724268,8.280273],[-0.753516,8.296875],[-0.795117,8.315479],[-0.801367,8.334375],[-0.783643,8.365723],[-0.837842,8.447266],[-0.912158,8.555127],[-0.9646,8.60376],[-0.998926,8.63042],[-1.04082,8.645605],[-1.086523,8.639893],[-1.128418,8.632324],[-1.140918,8.594629],[-1.152783,8.551318],[-1.180078,8.603613],[-1.218896,8.658252],[-1.25376,8.667627],[-1.303857,8.696582],[-1.35127,8.72373],[-1.40459,8.738965],[-1.442676,8.731348],[-1.488379,8.69707],[-1.544922,8.663574],[-1.604541,8.64375],[-1.663574,8.628516],[-1.71499,8.63042],[-1.663379,8.673242],[-1.591211,8.695166],[-1.518848,8.731348],[-1.466211,8.760986],[-1.412012,8.780811],[-1.376465,8.80459],[-1.355469,8.792334],[-1.294092,8.750391],[-1.269336,8.725635],[-1.126123,8.704687],[-1.061768,8.721826],[-1.06748,8.750391],[-1.096094,8.78374],[-1.133691,8.812988],[-1.145166,8.873633],[-1.174414,8.94458],[-1.178711,8.979053],[-1.17793,9.026514],[-1.174121,9.07417],[-1.151709,9.116602],[-1.130322,9.076074],[-1.126514,9.028418],[-1.124805,8.980762],[-1.120801,8.929395],[-1.105566,8.897021],[-1.075293,8.853027],[-1.044531,8.843066],[-1.025586,8.84375],[-0.996533,8.775293],[-0.931152,8.653125],[-0.873389,8.585547],[-0.842578,8.579004],[-0.81665,8.599512],[-0.817578,8.650488],[-0.823437,8.706885],[-0.808887,8.743115],[-0.79082,8.761377],[-0.782324,8.756055],[-0.795361,8.721045],[-0.806055,8.688672],[-0.769678,8.655566],[-0.722412,8.638525],[-0.70542,8.643066],[-0.706836,8.624902],[-0.757031,8.577539],[-0.804639,8.519922],[-0.797021,8.49707],[-0.781836,8.468555],[-0.721094,8.402148],[-0.659961,8.356641],[-0.626562,8.329248],[-0.594336,8.288379],[-0.565723,8.274805],[-0.554395,8.25083],[-0.526611,8.232373],[-0.484668,8.209473],[-0.448535,8.209473],[-0.393604,8.221484],[-0.355127,8.242725],[-0.317871,8.244043],[-0.285547,8.253125],[-0.245361,8.245117],[-0.201953,8.213086],[-0.192529,8.186182],[-0.256592,8.184912],[-0.32085,8.177246],[-0.330371,8.157812],[-0.308398,8.14248],[-0.262549,8.108398],[-0.190186,8.052588],[-0.127881,8.011182],[-0.103223,7.975732],[-0.081836,7.876367],[-0.052344,7.811475],[-0.024023,7.792578],[0.00166,7.793018],[0.018994,7.788672],[0.054639,7.792187],[0.070166,7.821143],[0.05791,7.862549],[0.056152,7.885645],[0.05918,7.919678],[0.073438,7.969385],[0.078711,8.003271],[0.061572,8.04082],[0.07002,8.080957],[0.099023,8.092969],[0.129297,8.086426],[0.153809,8.078027],[0.170313,8.086328],[0.165137,8.115234],[0.151758,8.161035],[0.12334,8.209961],[0.105273,8.241992],[0.136719,8.253613],[0.169238,8.289111],[0.198047,8.338184],[0.217383,8.363281],[0.160742,8.380957],[0.091992,8.403125],[0.080566,8.429102],[0.092676,8.460547],[0.090625,8.499951],[0.085498,8.547998],[0.105664,8.583008],[0.135352,8.597607],[0.149512,8.633008],[0.160059,8.700391],[0.183887,8.741699],[0.197656,8.738232],[0.184668,8.689844],[0.168359,8.625195],[0.152246,8.592432],[0.127539,8.574316],[0.121484,8.518359],[0.112891,8.457373],[0.102637,8.433789],[0.114648,8.415674],[0.178125,8.399268],[0.24209,8.379102],[0.260547,8.355176],[0.279785,8.340723],[0.293555,8.334424],[0.284082,8.326855],[0.242383,8.321973],[0.214258,8.314209],[0.21709,8.295996],[0.190039,8.251025],[0.183594,8.205615],[0.200977,8.165771],[0.231055,8.125439],[0.267773,8.106152],[0.266797,8.094336],[0.240234,8.088037],[0.197852,8.079346],[0.161035,8.05957],[0.145508,8.020654],[0.121191,7.972021],[0.108496,7.938721],[0.123926,7.913184],[0.145801,7.894189],[0.167773,7.863281],[0.221191,7.88252],[0.25752,7.90498],[0.251172,7.875586],[0.252148,7.862744],[0.247754,7.849268],[0.237012,7.833545],[0.247852,7.80293],[0.277539,7.762354],[0.279199,7.699023],[0.280957,7.616504],[0.281738,7.575391],[0.258984,7.581445],[0.24043,7.577881],[0.22832,7.556396],[0.228906,7.536377],[0.242188,7.510693],[0.249805,7.490771],[0.285254,7.514648],[0.320117,7.54248],[0.313477,7.505615],[0.301855,7.470215],[0.296973,7.452637],[0.295313,7.415723],[0.287207,7.381689],[0.276367,7.353076],[0.276758,7.339307],[0.277344,7.329785],[0.29248,7.303125],[0.29375,7.27793],[0.275684,7.25791],[0.271582,7.234326],[0.279395,7.217871],[0.280664,7.200586],[0.279297,7.182178],[0.275781,7.172314],[0.271387,7.137549],[0.288574,7.106348],[0.305176,7.098975],[0.299805,7.071289],[0.28125,7.047363],[0.272852,7.001172],[0.263477,6.94834],[0.240039,6.896338],[0.237109,6.768311],[0.253906,6.6729],[0.271875,6.674512]],[[0.130371,6.679102],[0.130371,6.679102],[0.130371,6.679102],[0.180762,6.725928],[0.15918,6.766748],[0.114746,6.795605],[0.061914,6.807617],[0.01748,6.77876],[0.011475,6.717529],[0.04873,6.694678],[0.089551,6.658643],[0.130371,6.679102]]]}},{"type":"Feature","properties":{},"bbox":[43.304297,33.190381,43.595313,33.435107],"geometry":{"type":"Polygon","coordinates":[[[43.595313,33.306152],[43.595313,33.306152],[43.595313,33.306152],[43.595313,33.306152],[43.566406,33.218506],[43.482813,33.190381],[43.434082,33.199463],[43.402441,33.256738],[43.304297,33.309424],[43.308594,33.34873],[43.382031,33.435107],[43.428027,33.389502],[43.477148,33.338379],[43.553906,33.348291],[43.595313,33.306152]]]}},{"type":"Feature","properties":{},"bbox":[19.098828,42.078809,19.480566,42.289648],"geometry":{"type":"Polygon","coordinates":[[[19.293262,42.264551],[19.293262,42.264551],[19.293262,42.264551],[19.293262,42.264551],[19.363574,42.289648],[19.391699,42.227539],[19.450781,42.156641],[19.480566,42.108154],[19.467383,42.078809],[19.394434,42.088086],[19.216406,42.158496],[19.098828,42.277588],[19.175488,42.277246],[19.293262,42.264551]]]}},{"type":"Feature","properties":{},"bbox":[8.881152,47.656396,9.127539,47.751855],"geometry":{"type":"Polygon","coordinates":[[[9.127539,47.670703],[9.127539,47.670703],[9.127539,47.670703],[8.881152,47.656396],[8.94834,47.686035],[8.980859,47.702295],[8.97666,47.729834],[8.99873,47.751855],[9.093652,47.716064],[9.127539,47.670703]]]}},{"type":"Feature","properties":{},"bbox":[67.933398,41.048291,68.455859,41.254736],"geometry":{"type":"Polygon","coordinates":[[[67.99082,41.254736],[67.99082,41.254736],[67.99082,41.254736],[67.99082,41.254736],[68.161719,41.199561],[68.243066,41.189111],[68.392969,41.161035],[68.455859,41.106787],[68.402734,41.07793],[68.27998,41.051562],[68.135352,41.048291],[68.024316,41.098779],[67.933398,41.224609],[67.99082,41.254736]]]}},{"type":"Feature","properties":{},"bbox":[89.709961,33.255811,89.969629,33.522852],"geometry":{"type":"Polygon","coordinates":[[[89.709961,33.46875],[89.709961,33.46875],[89.709961,33.46875],[89.709961,33.46875],[89.770508,33.468701],[89.832227,33.480225],[89.876172,33.505176],[89.935156,33.522852],[89.969629,33.479883],[89.91875,33.375537],[89.889746,33.329297],[89.82998,33.255811],[89.805664,33.285645],[89.785742,33.416797],[89.734277,33.447412],[89.709961,33.46875]]]}},{"type":"Feature","properties":{},"bbox":[75.935742,31.900195,76.171387,32.153174],"geometry":{"type":"Polygon","coordinates":[[[76.169141,31.900195],[76.169141,31.900195],[76.169141,31.900195],[76.169141,31.900195],[76.081934,31.908838],[75.974805,31.972461],[75.938281,32.061328],[75.935742,32.139209],[75.982813,32.153174],[76.094629,32.073437],[76.171387,31.961914],[76.169141,31.900195]]]}},{"type":"Feature","properties":{},"bbox":[87.414844,31.84707,87.595801,31.96875],"geometry":{"type":"Polygon","coordinates":[[[87.414844,31.85166],[87.414844,31.85166],[87.414844,31.85166],[87.414844,31.85166],[87.424023,31.911719],[87.489551,31.954346],[87.546094,31.96875],[87.590625,31.947656],[87.595801,31.903076],[87.530273,31.84707],[87.414844,31.85166]]]}},{"type":"Feature","properties":{},"bbox":[78.442969,33.677002,78.975586,33.973535],"geometry":{"type":"Polygon","coordinates":[[[78.442969,33.939404],[78.442969,33.939404],[78.442969,33.939404],[78.442969,33.939404],[78.49043,33.973535],[78.657813,33.816455],[78.758008,33.747266],[78.960547,33.741016],[78.975586,33.723486],[78.914062,33.696631],[78.734277,33.677002],[78.552637,33.851172],[78.442969,33.939404]]]}},{"type":"Feature","properties":{},"bbox":[68.690234,50.179004,69.616699,50.719238],"geometry":{"type":"Polygon","coordinates":[[[69.2875,50.687988],[69.2875,50.687988],[69.2875,50.687988],[69.2875,50.687988],[69.370508,50.719238],[69.516309,50.69292],[69.616699,50.676172],[69.6125,50.614502],[69.500098,50.591113],[69.390039,50.599023],[69.33457,50.604492],[69.274902,50.587744],[69.108691,50.460107],[69.047168,50.425684],[69.03584,50.396533],[69.056738,50.363867],[69.236621,50.353516],[69.259082,50.310596],[69.255762,50.254346],[69.200195,50.253662],[69.148145,50.241162],[69.074023,50.200537],[68.937793,50.179004],[68.77832,50.228418],[68.690234,50.265967],[68.718945,50.32998],[68.75918,50.437988],[68.779004,50.513379],[68.861328,50.571045],[68.992773,50.563867],[69.09082,50.563867],[69.226758,50.616211],[69.2875,50.687988]]]}},{"type":"Feature","properties":{},"bbox":[64.501367,52.515723,64.982324,52.908105],"geometry":{"type":"Polygon","coordinates":[[[64.573633,52.604883],[64.573633,52.604883],[64.573633,52.604883],[64.573633,52.604883],[64.685352,52.687402],[64.790039,52.767773],[64.883594,52.855957],[64.94873,52.908105],[64.982324,52.882861],[64.96709,52.731152],[64.889844,52.671875],[64.794043,52.62373],[64.765332,52.612793],[64.721973,52.593945],[64.64873,52.553125],[64.515039,52.515723],[64.501367,52.535059],[64.573633,52.604883]]]}}]}