{"type": "FeatureCollection", "features": [{"type": "Feature", "properties": {"scalerank": 3, "featurecla": "Lake Centerline", "name": "Indus", "note": null, "min_zoom": 3.0, "name_alt": null, "name_en": "Indus", "min_label": 4.0}, "bbox": [72.707015, 34.085568, 72.847574, 34.622538], "geometry": {"type": "MultiLineString", "coordinates": [[[72.781635, 34.622538], [72.834759, 34.371494], [72.847574, 34.257961], [72.837963, 34.198223], [72.801582, 34.147658], [72.707015, 34.085568]]]}}, {"type": "Feature", "properties": {"scalerank": 1, "featurecla": "Lake Centerline", "name": "Nile", "note": null, "min_zoom": 2.0, "name_alt": null, "name_en": "Nile", "min_label": 3.0}, "bbox": [31.09064, 21.609198, 32.914146, 23.987683], "geometry": {"type": "MultiLineString", "coordinates": [[[32.879471, 23.987683], [32.90872, 23.80847], [32.902933, 23.69628], [32.871823, 23.591377], [32.877921, 23.480893], [32.902623, 23.41454], [32.914146, 23.331884], [32.85508, 23.207654], [32.679897, 23.009423], [32.58688, 22.875658], [32.576131, 22.806386], [32.514222, 22.740163], [32.418311, 22.671536], [32.326275, 22.652881], [32.231914, 22.718071], [32.137088, 22.733471], [32.041693, 22.69908], [31.960716, 22.629885], [31.894054, 22.525835], [31.735355, 22.395378], [31.544359, 22.25151], [31.399975, 22.093122], [31.362251, 21.979796], [31.280241, 21.844636], [31.09064, 21.609198]]]}}, {"type": "Feature", "properties": {"scalerank": 3, "featurecla": "River", "name": "Euphrates", "note": null, "min_zoom": 3.0, "name_alt": null, "name_en": "Euphrates", "min_label": 4.0}, "bbox": [40.992568, 30.90168, 47.468452, 34.509057], "geometry": {"type": "MultiLineString", "coordinates": [[[45.463096, 31.305195], [45.540766, 31.22874], [45.685098, 31.18404], [45.922086, 31.145541], [46.121144, 31.086087], [46.363093, 30.965371], [46.483292, 30.902584], [46.579617, 30.90168], [46.692065, 30.941781], [46.885542, 30.958834], [47.16015, 30.952917], [47.331406, 30.96656], [47.399309, 30.999814], [47.442097, 31.004439], [47.468452, 30.968472]], [[40.992568, 34.428467], [41.119072, 34.38772], [41.176898, 34.392888], [41.208214, 34.430405], [41.275858, 34.442859], [41.379935, 34.43025], [41.430061, 34.436038], [41.448251, 34.439888], [41.470523, 34.449164], [41.501788, 34.436038], [41.590723, 34.448337], [41.717123, 34.497119], [41.827194, 34.509057], [41.920935, 34.484149], [41.989613, 34.446115], [42.055035, 34.369324], [42.122163, 34.301731], [42.169602, 34.28814], [42.219728, 34.305942], [42.248047, 34.296977], [42.26293, 34.289561], [42.286184, 34.292197], [42.303237, 34.33408], [42.329851, 34.346483], [42.365921, 34.329429], [42.366334, 34.301834], [42.330988, 34.263645], [42.331814, 34.231218], [42.368918, 34.204502], [42.383284, 34.165408], [42.375119, 34.113887], [42.417236, 34.058981], [42.446536, 34.040506], [42.509736, 34.000638], [42.551129, 33.943587], [42.541414, 33.887803], [42.563428, 33.870336], [42.617172, 33.891213], [42.672879, 33.889611], [42.730446, 33.865478], [42.747551, 33.819641], [42.72409, 33.751997], [42.767292, 33.671123], [42.877156, 33.576917], [42.965471, 33.520848], [43.03234, 33.502813], [43.078952, 33.504622], [43.105514, 33.526171], [43.155227, 33.515009], [43.228194, 33.471136], [43.287673, 33.454832], [43.333665, 33.466149], [43.45433, 33.442429], [43.535617, 33.417986], [43.649667, 33.383673], [43.775757, 33.31143], [43.832498, 33.225698], [43.872289, 33.198646], [43.905362, 33.198646], [43.947633, 33.194667], [44.029075, 33.159708], [44.122041, 33.052944], [44.253661, 32.828177], [44.262549, 32.792934], [44.263583, 32.726995], [44.236608, 32.624004], [44.25547, 32.496363], [44.321305, 32.348517], [44.354947, 32.235449], [44.356497, 32.157211], [44.387348, 32.072461], [44.447603, 31.981278], [44.476851, 31.877874], [44.475094, 31.762299], [44.548113, 31.648094], [44.769805, 31.478854], [45.041882, 31.440717], [45.158154, 31.402657], [45.209313, 31.352014], [45.292874, 31.321318], [45.46692, 31.305195]]]}}, {"type": "Feature", "properties": {"scalerank": 3, "featurecla": "River", "name": "Indus", "note": null, "min_zoom": 3.0, "name_alt": null, "name_en": "Indus", "min_label": 4.0}, "bbox": [67.45395, 23.84826, 79.734596, 35.836366], "geometry": {"type": "MultiLineString", "coordinates": [[[67.859972, 23.902676], [67.925188, 24.000758]], [[67.645825, 23.919884], [67.711196, 23.956626], [67.713831, 24.000861], [67.713418, 24.066387]], [[67.925188, 24.000758], [67.99955, 24.007114], [68.016603, 23.990681], [68.02451, 23.933682], [68.042441, 23.891669], [68.037015, 23.84826]], [[67.925188, 24.000758], [67.924154, 24.055948], [67.800751, 24.058506], [67.760133, 24.052847], [67.713418, 24.066387]], [[67.713418, 24.066387], [67.660759, 24.10486]], [[79.734596, 32.443937], [79.429808, 32.744978]], [[79.43725, 32.738131], [79.340822, 32.880681], [79.220312, 32.996462], [79.043682, 33.132991], [78.90674, 33.189034], [78.809484, 33.164539], [78.639831, 33.207792], [78.245488, 33.397962], [78.183373, 33.445297], [78.151644, 33.493356], [78.150403, 33.542139], [78.076919, 33.620015], [77.931295, 33.726934], [77.792131, 33.857365], [77.659529, 34.011206], [77.529769, 34.106136], [77.339393, 34.160137], [76.96691, 34.287778], [76.782115, 34.386299], [76.660778, 34.498282], [76.529314, 34.582644], [76.387617, 34.639385], [76.285091, 34.708321], [76.221529, 34.789376], [76.196207, 34.86118], [76.20892, 34.923657], [76.141895, 35.007579], [75.995031, 35.112896], [75.902013, 35.209531], [75.862843, 35.297432], [75.791477, 35.334588], [75.687815, 35.320945], [75.567719, 35.357093], [75.431086, 35.442979], [75.352848, 35.510856], [75.333108, 35.560698], [75.263861, 35.589663], [75.145212, 35.597724], [75.000725, 35.632347], [74.830399, 35.693532], [74.740069, 35.753477], [74.729734, 35.812181], [74.701053, 35.836366], [74.654028, 35.826031], [74.631032, 35.747534], [74.632065, 35.600825], [74.575324, 35.50003], [74.460809, 35.445124], [74.34247, 35.414583], [74.220307, 35.408407], [74.058457, 35.435874], [73.856919, 35.496955], [73.6452, 35.53101], [73.423302, 35.538038], [73.301604, 35.471169], [73.28021, 35.330402], [73.1751, 35.20426], [72.986377, 35.092742], [72.885195, 35.004479], [72.871656, 34.939366], [72.894807, 34.886346], [72.954648, 34.845367], [72.944571, 34.808883], [72.864473, 34.776844], [72.813726, 34.726253], [72.781635, 34.622538]], [[72.706911, 34.085543], [72.651617, 34.031747], [72.591776, 34.015495], [72.508991, 34.018802], [72.410754, 33.999837], [72.297169, 33.958574], [72.238826, 33.894934], [72.235726, 33.808996], [72.197485, 33.77197], [72.124104, 33.783933], [72.071033, 33.778972], [72.03827, 33.757087], [71.985922, 33.665465], [71.913885, 33.504079], [71.839212, 33.406333], [71.761801, 33.372279], [71.721958, 33.273783], [71.719685, 33.110847], [71.650955, 32.993878], [71.515666, 32.922797], [71.424716, 32.837686], [71.354539, 32.688884], [71.3441, 32.483547], [71.272994, 32.311103], [71.070215, 31.999081], [70.861081, 31.569495], [70.800774, 31.299692], [70.82899, 30.919844], [70.769769, 30.810755], [70.774523, 30.716291], [70.823512, 30.600096], [70.829506, 30.485478], [70.792506, 30.37241], [70.791524, 30.211903], [70.826561, 30.003957], [70.791886, 29.825157], [70.687603, 29.675502], [70.656649, 29.550393], [70.699127, 29.449882], [70.702331, 29.35348], [70.666261, 29.261237], [70.651223, 29.176023], [70.657114, 29.097862], [70.611639, 29.023112], [70.51459, 28.951799], [70.442967, 28.915755], [70.396768, 28.915005], [70.287369, 28.83545], [70.114873, 28.677113], [69.962014, 28.575724], [69.828792, 28.531282], [69.714949, 28.444388], [69.620588, 28.314965], [69.534908, 28.24577], [69.458014, 28.236881], [69.409438, 28.212387], [69.389181, 28.172389], [69.356315, 28.156731], [69.310839, 28.165413], [69.248931, 28.141358], [69.17059, 28.084539], [69.107286, 28.057771], [69.05902, 28.061052], [69.025896, 28.040046], [69.007912, 27.994777], [68.979852, 27.975166], [68.941715, 27.981264], [68.929467, 27.955297], [68.94311, 27.897316], [68.927607, 27.853132], [68.883062, 27.822746], [68.884457, 27.792128], [68.931896, 27.761277], [68.94988, 27.736964], [68.938407, 27.719187], [68.826476, 27.677794], [68.762449, 27.697793], [68.705192, 27.759495], [68.66907, 27.770502], [68.654084, 27.730892], [68.573107, 27.687742], [68.426242, 27.641052], [68.337359, 27.602502], [68.30656, 27.572116], [68.300048, 27.511189], [68.317722, 27.419825], [68.297413, 27.371405], [68.239019, 27.365875], [68.194008, 27.34213], [68.162279, 27.300143], [68.160264, 27.263091], [68.187859, 27.230948], [68.174785, 27.207616], [68.121041, 27.193121], [68.098924, 27.162942], [68.108536, 27.117053], [68.063215, 27.062018], [67.963066, 26.997784], [67.910925, 26.909779], [67.904724, 26.742089], [67.890926, 26.486859], [67.899556, 26.368623], [67.925911, 26.302219], [67.981928, 26.24336], [68.067608, 26.191993], [68.116804, 26.140265], [68.129723, 26.088124], [68.201553, 25.99893], [68.332295, 25.87271], [68.378803, 25.794808], [68.340873, 25.765249], [68.348108, 25.728171], [68.400301, 25.683549], [68.39844, 25.620659], [68.342423, 25.539423], [68.323096, 25.443925], [68.340459, 25.334165], [68.337152, 25.261559], [68.313174, 25.226057], [68.318549, 25.191693], [68.353172, 25.158413], [68.35157, 25.138621], [68.313639, 25.132265], [68.286199, 25.089115], [68.269353, 25.009223], [68.245065, 24.978527], [68.213542, 24.997053], [68.183466, 24.973256], [68.154941, 24.907162], [68.116494, 24.872642], [68.068228, 24.8698], [68.024613, 24.760349], [67.985752, 24.544342], [67.935626, 24.430189], [67.874131, 24.417993], [67.85005, 24.395514], [67.863383, 24.362777], [67.848655, 24.343837], [67.80597, 24.33867], [67.795893, 24.317947], [67.818321, 24.281671], [67.787108, 24.239193], [67.702152, 24.190513], [67.659261, 24.145555], [67.658537, 24.104369], [67.626705, 24.077962], [67.532343, 24.060521], [67.45395, 24.039902]]]}}, {"type": "Feature", "properties": {"scalerank": 1, "featurecla": "River", "name": "Nile", "note": null, "min_zoom": 2.0, "name_alt": null, "name_en": "Nile", "min_label": 3.0}, "bbox": [30.31663, 15.63455, 33.968811, 30.120694], "geometry": {"type": "MultiLineString", "coordinates": [[[32.490141, 15.63455], [32.53541, 16.040417], [32.628531, 16.256476], [32.784594, 16.41812], [32.928667, 16.507959], [33.060649, 16.525994], [33.164674, 16.566173], [33.240638, 16.628443], [33.358667, 16.685881], [33.518761, 16.738436], [33.634567, 16.824503], [33.705984, 16.944082], [33.731771, 17.028883], [33.711824, 17.078906], [33.714563, 17.151331], [33.740091, 17.246131], [33.810216, 17.378888], [33.925041, 17.549575], [33.951861, 17.698507], [33.968811, 17.792351], [33.941629, 18.107267], [33.900391, 18.278058], [33.845097, 18.304723], [33.784429, 18.363789], [33.71818, 18.45523], [33.681903, 18.554578], [33.675392, 18.661859], [33.644954, 18.723922], [33.590488, 18.740769], [33.566768, 18.847274], [33.573693, 19.043386], [33.539069, 19.173352], [33.462898, 19.237198], [33.413496, 19.307607], [33.379699, 19.42313], [33.138267, 19.502686], [33.017964, 19.510773], [32.938486, 19.473902], [32.838234, 19.3829], [32.717207, 19.237689], [32.619746, 19.160691], [32.545642, 19.151906], [32.46761, 19.08297], [32.385445, 18.953882], [32.306328, 18.889933], [32.230157, 18.891147], [32.153211, 18.864999], [32.075593, 18.811539], [32.039213, 18.743404], [32.04407, 18.660618], [32.004641, 18.606255], [31.920822, 18.58021], [31.799951, 18.45244], [31.642028, 18.222919], [31.474131, 18.077243], [31.296261, 18.015335], [31.145882, 18.001744], [31.022996, 18.03647], [30.910599, 18.087113], [30.808693, 18.153569], [30.743995, 18.256974], [30.716503, 18.397327], [30.673818, 18.499026], [30.615837, 18.561968], [30.561525, 18.660205], [30.510779, 18.793737], [30.486233, 18.987989], [30.487886, 19.243063], [30.457914, 19.471112], [30.396419, 19.672185], [30.349962, 19.786389], [30.34774, 19.821762], [30.369806, 19.856928], [30.499772, 19.914134], [30.575013, 19.967283], [30.59434, 20.015833], [30.599662, 20.098128], [30.591084, 20.214193], [30.570879, 20.29101], [30.539149, 20.328527], [30.48954, 20.350954], [30.42205, 20.358241], [30.365981, 20.416945], [30.32123, 20.527016], [30.31663, 20.615796], [30.352287, 20.683389], [30.362674, 20.734755], [30.369754, 20.774262], [30.397142, 20.805009], [30.510417, 20.840227], [30.576253, 20.900275], [30.594753, 20.985154], [30.631547, 21.043832], [30.68684, 21.076233], [30.709165, 21.120623], [30.698623, 21.176951], [30.763115, 21.249065], [30.902745, 21.336992], [30.969872, 21.399133], [30.964601, 21.435514], [30.994109, 21.49259], [31.09064, 21.609198]], [[32.879471, 23.987683], [32.913061, 24.328438], [32.912648, 24.453986], [32.889393, 24.477912], [32.891874, 24.539562], [32.919882, 24.638936], [32.920968, 24.77022], [32.895026, 24.933414], [32.870583, 25.037464], [32.847639, 25.082423], [32.767024, 25.149473], [32.628737, 25.238589], [32.540371, 25.349822], [32.502027, 25.483148], [32.492932, 25.565365], [32.523214, 25.612003], [32.704133, 25.754268], [32.764026, 25.87917], [32.763199, 26.034173], [32.734364, 26.128845], [32.677623, 26.163261], [32.553393, 26.142797], [32.361674, 26.067427], [32.228658, 26.076884], [32.154244, 26.171168], [32.093938, 26.189384], [32.04128, 26.190004], [32.015235, 26.200107], [31.996941, 26.246719], [31.965522, 26.297413], [31.871368, 26.37467], [31.82026, 26.445311], [31.812301, 26.509287], [31.782174, 26.541894], [31.729981, 26.543083], [31.706468, 26.564167], [31.711739, 26.605095], [31.694686, 26.631656], [31.655308, 26.643749], [31.552627, 26.761984], [31.369176, 27.009902], [31.340651, 27.057108], [31.303547, 27.098553], [31.278432, 27.122686], [31.244946, 27.143641], [30.969304, 27.35554], [30.868276, 27.500311], [30.88905, 27.618547], [30.883934, 27.767659], [30.877475, 27.901708], [30.863005, 27.985217], [30.837426, 28.037669], [30.80735, 28.085418], [30.773967, 28.119938], [30.744253, 28.165465], [30.740015, 28.229905], [30.762185, 28.308557], [30.810864, 28.401367], [30.83572, 28.492499], [30.836857, 28.581977], [30.857889, 28.681609], [30.898714, 28.791473], [30.994625, 28.94304], [31.14552, 29.136413], [31.219108, 29.281986], [31.215387, 29.379757], [31.236058, 29.488691], [31.281016, 29.608787], [31.286907, 29.782601], [31.255385, 29.998996], [31.253834, 30.080154], [31.237608, 30.120694]]]}}, {"type": "Feature", "properties": {"scalerank": 4, "featurecla": "River", "name": "Tigris", "note": null, "min_zoom": 4.0, "name_alt": null, "name_en": "Tigris", "min_label": 5.0}, "bbox": [42.376566, 30.99909, 47.441322, 37.062493], "geometry": {"type": "MultiLineString", "coordinates": [[[42.376566, 37.062493], [42.433617, 36.989784], [42.46638, 36.967434], [42.489169, 36.959579], [42.509323, 36.940665], [42.51294, 36.875837], [42.558674, 36.832481], [42.713083, 36.784783], [42.758558, 36.755173], [42.774475, 36.733159], [42.760832, 36.718741], [42.85757, 36.707527], [42.895191, 36.691301], [42.901289, 36.661561], [42.886096, 36.6458], [42.849509, 36.643991], [42.811165, 36.60867], [42.771167, 36.539837], [42.844341, 36.478497], [43.030686, 36.42465], [43.168663, 36.333648], [43.258269, 36.205439], [43.317491, 36.076196], [43.346326, 35.945868], [43.343226, 35.857812], [43.307982, 35.812026], [43.29744, 35.765414], [43.3116, 35.717975], [43.299301, 35.681879], [43.260647, 35.657074], [43.248348, 35.586407], [43.262404, 35.469825], [43.348031, 35.31632], [43.505231, 35.125867], [43.568431, 35.006184], [43.537529, 34.957221], [43.584038, 34.832009], [43.707854, 34.630496], [43.784646, 34.453091], [43.814515, 34.299715], [43.854202, 34.193727], [43.903811, 34.135074], [43.960345, 34.098074], [44.05543, 34.075104], [44.23237, 34.050015], [44.32854, 34.019009], [44.402851, 33.973715], [44.427345, 33.909197], [44.402024, 33.825481], [44.398458, 33.768895], [44.416752, 33.73944], [44.400009, 33.696858], [44.348436, 33.641254], [44.318256, 33.585857], [44.309678, 33.530667], [44.323941, 33.451033], [44.361045, 33.346854], [44.396701, 33.293369], [44.430808, 33.290578], [44.480004, 33.235078], [44.544289, 33.126971], [44.674617, 33.023695], [44.870988, 32.925226], [44.980955, 32.887192], [45.026585, 32.891248], [45.041365, 32.879156], [45.041365, 32.856341], [45.044465, 32.832286], [45.079502, 32.803476], [45.139602, 32.785389], [45.224764, 32.778], [45.260214, 32.751619], [45.258664, 32.713662], [45.298403, 32.663485], [45.383669, 32.60354], [45.522007, 32.555739], [45.809122, 32.502202], [46.029883, 32.618681], [46.136595, 32.63222], [46.201397, 32.587546], [46.343611, 32.54158], [46.563236, 32.494348], [46.692168, 32.442568], [46.730409, 32.386344], [46.735163, 32.32149], [46.706328, 32.248058], [46.698886, 32.190697], [46.712632, 32.149433], [46.755369, 32.112123], [46.826992, 32.078766], [46.888487, 32.013886], [46.939854, 31.917458], [47.00786, 31.8679], [47.092506, 31.865213], [47.138549, 31.825758], [47.146094, 31.749484], [47.220818, 31.62732], [47.362929, 31.459165], [47.433932, 31.286049], [47.441322, 30.99909]]]}}]}